{
"type": "FeatureCollection",
"name": "DKG3D-SHP-583906-RailTrCL3d-20260317",
"crs": { "type": "name", "properties": { "name": "urn:ogc:def:crs:OGC:1.3:CRS84" } },
"features": [
{ "type": "Feature", "properties": { "rID": "50328-13944-s-8680", "lfSpanFr": "2026-03-17", "lfSpanTo": null, "tmpFlg": 0, "orgGILvl": "2500", "ftCode": "2801", "admCode": null, "devDate": null, "type": "普通鉄道", "railState": "通常部", "drwOrder": 0, "name": null, "admOfcRT": null, "vis": 0, "rtCode": null, "clElvSrc": "CTO-2024-6", "clElvCode": 22, "adjCode": 4 }, "geometry": { "type": "LineString", "coordinates": [ [ 139.805299246, 38.741583542, 13.38 ], [ 139.805291746, 38.741583903, 13.39 ] ] } },
{ "type": "Feature", "properties": { "rID": "50334-13944-s-7643", "lfSpanFr": "2026-03-17", "lfSpanTo": null, "tmpFlg": 0, "orgGILvl": "2500", "ftCode": "2803", "admCode": null, "devDate": "2025-11-11", "type": "普通鉄道", "railState": "橋・高架", "drwOrder": 0, "name": null, "admOfcRT": null, "vis": 0, "rtCode": null, "clElvSrc": "CTO-2024-6", "clElvCode": 21, "adjCode": 4 }, "geometry": { "type": "LineString", "coordinates": [ [ 139.824270555, 38.740625692, 15.2 ], [ 139.82421058, 38.7406286, 15.19 ] ] } },
{ "type": "Feature", "properties": { "rID": "50334-13944-s-7645", "lfSpanFr": "2026-03-17", "lfSpanTo": null, "tmpFlg": 0, "orgGILvl": "2500", "ftCode": "2801", "admCode": null, "devDate": null, "type": "普通鉄道", "railState": "通常部", "drwOrder": 0, "name": null, "admOfcRT": null, "vis": 0, "rtCode": null, "clElvSrc": "CTO-2024-6", "clElvCode": 22, "adjCode": 4 }, "geometry": { "type": "LineString", "coordinates": [ [ 139.824396452, 38.740619587, 15.21 ], [ 139.824270555, 38.740625692, 15.2 ] ] } },
{ "type": "Feature", "properties": { "rID": "50328-13947-s-2081", "lfSpanFr": "2026-03-17", "lfSpanTo": null, "tmpFlg": 0, "orgGILvl": "2500", "ftCode": "2801", "admCode": null, "devDate": null, "type": "普通鉄道", "railState": "通常部", "drwOrder": 0, "name": null, "admOfcRT": null, "vis": 0, "rtCode": null, "clElvSrc": "CTO-2024-6", "clElvCode": 22, "adjCode": 4 }, "geometry": { "type": "LineString", "coordinates": [ [ 139.800953467, 38.741808407, 13.73 ], [ 139.801043607, 38.741802657, 13.73 ], [ 139.801402859, 38.741783906, 13.75 ], [ 139.802200281000012, 38.741742267, 13.73 ], [ 139.802802007, 38.741716183, 13.68 ], [ 139.803819973, 38.741666667, 13.71 ] ] } },
{ "type": "Feature", "properties": { "rID": "50328-13947-s-2080", "lfSpanFr": "2026-03-17", "lfSpanTo": null, "tmpFlg": 0, "orgGILvl": "2500", "ftCode": "2801", "admCode": null, "devDate": null, "type": "普通鉄道", "railState": "通常部", "drwOrder": 0, "name": null, "admOfcRT": null, "vis": 0, "rtCode": null, "clElvSrc": "CTO-2024-6", "clElvCode": 22, "adjCode": 0 }, "geometry": { "type": "LineString", "coordinates": [ [ 139.800953467, 38.741808407, 13.73 ], [ 139.801155357, 38.741816656, 13.57 ], [ 139.801323331, 38.741818156, 13.56 ], [ 139.801418998, 38.741815878, 13.54 ], [ 139.80188616800001, 38.741789517, 13.62 ], [ 139.802566395000014, 38.741759516, 13.64 ], [ 139.803365483, 38.741717349, 13.79 ], [ 139.803831236, 38.741695959, 13.76 ], [ 139.804187211, 38.741679598, 13.6 ], [ 139.804423177, 38.741666667, 13.56 ] ] } },
{ "type": "Feature", "properties": { "rID": "50325-13947-s-4320", "lfSpanFr": "2026-03-17", "lfSpanTo": null, "tmpFlg": 0, "orgGILvl": "2500", "ftCode": "2803", "admCode": null, "devDate": "2025-11-11", "type": "普通鉄道", "railState": "橋・高架", "drwOrder": 0, "name": null, "admOfcRT": null, "vis": 0, "rtCode": null, "clElvSrc": "CTO-2024-6", "clElvCode": 21, "adjCode": 4 }, "geometry": { "type": "LineString", "coordinates": [ [ 139.794622671000013, 38.74212383, 13.41 ], [ 139.79458918, 38.742125689, 13.41 ] ] } },
{ "type": "Feature", "properties": { "rID": "50325-13947-s-4318", "lfSpanFr": "2026-03-17", "lfSpanTo": null, "tmpFlg": 0, "orgGILvl": "2500", "ftCode": "2801", "admCode": null, "devDate": null, "type": "普通鉄道", "railState": "通常部", "drwOrder": 0, "name": null, "admOfcRT": null, "vis": 0, "rtCode": null, "clElvSrc": "CTO-2024-6", "clElvCode": 22, "adjCode": 4 }, "geometry": { "type": "LineString", "coordinates": [ [ 139.797815377, 38.741963985, 13.57 ], [ 139.795548427999989, 38.742080774, 13.46 ], [ 139.794680089, 38.742120636, 13.42 ], [ 139.794622671000013, 38.74212383, 13.41 ] ] } },
{ "type": "Feature", "properties": { "rID": "50325-13947-s-4317", "lfSpanFr": "2026-03-17", "lfSpanTo": null, "tmpFlg": 0, "orgGILvl": "2500", "ftCode": "2803", "admCode": null, "devDate": "2025-11-11", "type": "普通鉄道", "railState": "橋・高架", "drwOrder": 0, "name": null, "admOfcRT": null, "vis": 0, "rtCode": null, "clElvSrc": "CTO-2024-6", "clElvCode": 21, "adjCode": 4 }, "geometry": { "type": "LineString", "coordinates": [ [ 139.797853946, 38.741961998, 13.57 ], [ 139.797815377, 38.741963985, 13.57 ] ] } },
{ "type": "Feature", "properties": { "rID": "50328-13947-s-2193", "lfSpanFr": "2026-03-17", "lfSpanTo": null, "tmpFlg": 0, "orgGILvl": "2500", "ftCode": "2801", "admCode": null, "devDate": null, "type": "普通鉄道", "railState": "通常部", "drwOrder": 0, "name": null, "admOfcRT": null, "vis": 0, "rtCode": null, "clElvSrc": "CTO-2024-6", "clElvCode": 22, "adjCode": 4 }, "geometry": { "type": "LineString", "coordinates": [ [ 139.800953467, 38.741808407, 13.73 ], [ 139.800881133, 38.741810129, 13.72 ], [ 139.800310262000011, 38.741839629, 13.69 ] ] } },
{ "type": "Feature", "properties": { "rID": "50331-13944-s-6629", "lfSpanFr": "2026-03-17", "lfSpanTo": null, "tmpFlg": 0, "orgGILvl": "2500", "ftCode": "2801", "admCode": null, "devDate": null, "type": "普通鉄道", "railState": "通常部", "drwOrder": 0, "name": null, "admOfcRT": null, "vis": 0, "rtCode": null, "clElvSrc": "CTO-2024-6", "clElvCode": 22, "adjCode": 0 }, "geometry": { "type": "LineString", "coordinates": [ [ 139.808333333, 38.741461577, 13.1 ], [ 139.808349711, 38.7414599, 13.1 ], [ 139.808886437000012, 38.741404872, 13.0 ] ] } },
{ "type": "Feature", "properties": { "rID": "50328-13944-s-8886", "lfSpanFr": "2026-03-17", "lfSpanTo": null, "tmpFlg": 0, "orgGILvl": "2500", "ftCode": "2801", "admCode": null, "devDate": null, "type": "普通鉄道", "railState": "通常部", "drwOrder": 0, "name": null, "admOfcRT": null, "vis": 0, "rtCode": null, "clElvSrc": "CTO-2024-6", "clElvCode": 22, "adjCode": 4 }, "geometry": { "type": "LineString", "coordinates": [ [ 139.803819973, 38.741666667, 13.71 ], [ 139.803831653, 38.741666099, 13.71 ], [ 139.80392143200001, 38.741661654, 13.7 ], [ 139.803922320999988, 38.741661654, 13.7 ], [ 139.804760632000011, 38.74161257, 13.5 ], [ 139.805179689999989, 38.741589931, 13.42 ], [ 139.805291746, 38.741583903, 13.39 ] ] } },
{ "type": "Feature", "properties": { "rID": "50328-13947-s-2252", "lfSpanFr": "2026-03-17", "lfSpanTo": null, "tmpFlg": 0, "orgGILvl": "2500", "ftCode": "2803", "admCode": null, "devDate": "2025-11-11", "type": "普通鉄道", "railState": "橋・高架", "drwOrder": 0, "name": null, "admOfcRT": null, "vis": 0, "rtCode": null, "clElvSrc": "CTO-2024-6", "clElvCode": 21, "adjCode": 4 }, "geometry": { "type": "LineString", "coordinates": [ [ 139.800310262000011, 38.741839629, 13.69 ], [ 139.800264062, 38.741842017, 13.69 ] ] } },
{ "type": "Feature", "properties": { "rID": "50325-13947-s-4179", "lfSpanFr": "2026-03-17", "lfSpanTo": null, "tmpFlg": 0, "orgGILvl": "2500", "ftCode": "2801", "admCode": null, "devDate": null, "type": "普通鉄道", "railState": "通常部", "drwOrder": 0, "name": null, "admOfcRT": null, "vis": 0, "rtCode": null, "clElvSrc": "CTO-2024-6", "clElvCode": 22, "adjCode": 4 }, "geometry": { "type": "LineString", "coordinates": [ [ 139.799515929, 38.741876686, 13.65 ], [ 139.799227233000011, 38.741890909, 13.64 ], [ 139.798097253, 38.741948104, 13.59 ], [ 139.798093252, 38.741948965, 13.59 ], [ 139.79807903, 38.741949993, 13.58 ], [ 139.798067307999986, 38.741950993, 13.58 ], [ 139.79806378, 38.741951188, 13.58 ], [ 139.797853946, 38.741961998, 13.57 ] ] } },
{ "type": "Feature", "properties": { "rID": "50331-13944-s-6628", "lfSpanFr": "2026-03-17", "lfSpanTo": null, "tmpFlg": 0, "orgGILvl": "2500", "ftCode": "2801", "admCode": null, "devDate": null, "type": "普通鉄道", "railState": "通常部", "drwOrder": 0, "name": null, "admOfcRT": null, "vis": 0, "rtCode": null, "clElvSrc": "CTO-2024-6", "clElvCode": 22, "adjCode": 4 }, "geometry": { "type": "LineString", "coordinates": [ [ 139.808333333, 38.741432841, 13.1 ], [ 139.808349711, 38.741432011, 13.1 ], [ 139.808886437000012, 38.741404872, 13.0 ] ] } },
{ "type": "Feature", "properties": { "rID": "50328-13944-s-8681", "lfSpanFr": "2026-03-17", "lfSpanTo": null, "tmpFlg": 0, "orgGILvl": "2500", "ftCode": "2802", "admCode": null, "devDate": null, "type": "普通鉄道", "railState": "その他", "drwOrder": 0, "name": null, "admOfcRT": null, "vis": 1, "rtCode": null, "clElvSrc": "CTO-2024-6", "clElvCode": 22, "adjCode": 2 }, "geometry": { "type": "LineString", "coordinates": [ [ 139.805381302, 38.741615097, 13.37 ], [ 139.805953445, 38.74158518, 13.19 ] ] } },
{ "type": "Feature", "properties": { "rID": "50328-13944-s-8888", "lfSpanFr": "2026-03-17", "lfSpanTo": null, "tmpFlg": 0, "orgGILvl": "2500", "ftCode": "2801", "admCode": null, "devDate": null, "type": "普通鉄道", "railState": "通常部", "drwOrder": 0, "name": null, "admOfcRT": null, "vis": 0, "rtCode": null, "clElvSrc": "CTO-2024-6", "clElvCode": 22, "adjCode": 0 }, "geometry": { "type": "LineString", "coordinates": [ [ 139.805953445, 38.74158518, 13.19 ], [ 139.805963473, 38.741584652, 13.19 ], [ 139.80681334, 38.741545623, 13.18 ], [ 139.807752929, 38.741496484, 12.75 ] ] } },
{ "type": "Feature", "properties": { "rID": "50331-13944-s-6377", "lfSpanFr": "2026-03-17", "lfSpanTo": null, "tmpFlg": 0, "orgGILvl": "2500", "ftCode": "2801", "admCode": null, "devDate": null, "type": "普通鉄道", "railState": "通常部", "drwOrder": 0, "name": null, "admOfcRT": null, "vis": 0, "rtCode": null, "clElvSrc": "CTO-2024-6", "clElvCode": 22, "adjCode": 4 }, "geometry": { "type": "LineString", "coordinates": [ [ 139.816666667, 38.74101294, 14.39 ], [ 139.816570932, 38.741017753, 14.35 ], [ 139.815115728, 38.741094143, 14.24 ], [ 139.81430425100001, 38.741131922, 13.96 ], [ 139.813464106, 38.741177728, 13.81 ], [ 139.812397905000012, 38.741228313, 13.61 ], [ 139.811568899, 38.741269786, 13.49 ], [ 139.810511559, 38.741324092, 13.2 ], [ 139.809752471, 38.741361537, 13.16 ], [ 139.808886437000012, 38.741404872, 13.0 ] ] } },
{ "type": "Feature", "properties": { "rID": "50334-13944-s-7646", "lfSpanFr": "2026-03-17", "lfSpanTo": null, "tmpFlg": 0, "orgGILvl": "2500", "ftCode": "2803", "admCode": null, "devDate": "2025-11-11", "type": "普通鉄道", "railState": "橋・高架", "drwOrder": 0, "name": null, "admOfcRT": null, "vis": 0, "rtCode": null, "clElvSrc": "CTO-2024-6", "clElvCode": 21, "adjCode": 4 }, "geometry": { "type": "LineString", "coordinates": [ [ 139.824618014, 38.740608844, 15.25 ], [ 139.824396452, 38.740619587, 15.21 ] ] } },
{ "type": "Feature", "properties": { "rID": "50328-13944-s-8674", "lfSpanFr": "2026-03-17", "lfSpanTo": null, "tmpFlg": 0, "orgGILvl": "2500", "ftCode": "2801", "admCode": null, "devDate": null, "type": "普通鉄道", "railState": "通常部", "drwOrder": 0, "name": null, "admOfcRT": null, "vis": 0, "rtCode": null, "clElvSrc": "CTO-2024-6", "clElvCode": 22, "adjCode": 4 }, "geometry": { "type": "LineString", "coordinates": [ [ 139.80588486100001, 38.741554986, 13.2 ], [ 139.806766089, 38.741508346, 13.16 ], [ 139.80828832200001, 38.741435122, 13.09 ], [ 139.808333333, 38.741432841, 13.1 ] ] } },
{ "type": "Feature", "properties": { "rID": "50325-13947-s-3993", "lfSpanFr": "2026-03-17", "lfSpanTo": null, "tmpFlg": 0, "orgGILvl": "2500", "ftCode": "2801", "admCode": null, "devDate": null, "type": "普通鉄道", "railState": "通常部", "drwOrder": 0, "name": null, "admOfcRT": null, "vis": 0, "rtCode": null, "clElvSrc": "CTO-2024-6", "clElvCode": 22, "adjCode": 4 }, "geometry": { "type": "LineString", "coordinates": [ [ 139.8, 38.741852597, 13.68 ], [ 139.799853265, 38.741858297, 13.67 ], [ 139.799754904, 38.741861269, 13.67 ] ] } },
{ "type": "Feature", "properties": { "rID": "50328-13944-s-8887", "lfSpanFr": "2026-03-17", "lfSpanTo": null, "tmpFlg": 0, "orgGILvl": "2500", "ftCode": "2801", "admCode": null, "devDate": null, "type": "普通鉄道", "railState": "通常部", "drwOrder": 0, "name": null, "admOfcRT": null, "vis": 0, "rtCode": null, "clElvSrc": "CTO-2024-6", "clElvCode": 22, "adjCode": 0 }, "geometry": { "type": "LineString", "coordinates": [ [ 139.804423177, 38.741666667, 13.56 ], [ 139.804514657999988, 38.741661653, 13.49 ], [ 139.804929216, 38.741639097, 13.44 ], [ 139.805084551, 38.741631958, 13.43 ], [ 139.805171162, 38.741626486, 13.42 ], [ 139.80517144, 38.741626486, 13.42 ], [ 139.80537358, 38.741615486, 13.37 ], [ 139.805381302, 38.741615097, 13.37 ] ] } },
{ "type": "Feature", "properties": { "rID": "50328-13944-s-8683", "lfSpanFr": "2026-03-17", "lfSpanTo": null, "tmpFlg": 0, "orgGILvl": "2500", "ftCode": "2801", "admCode": null, "devDate": null, "type": "普通鉄道", "railState": "通常部", "drwOrder": 0, "name": null, "admOfcRT": null, "vis": 0, "rtCode": null, "clElvSrc": "CTO-2024-6", "clElvCode": 22, "adjCode": 4 }, "geometry": { "type": "LineString", "coordinates": [ [ 139.80588486100001, 38.741554986, 13.2 ], [ 139.805876167, 38.741555402, 13.21 ] ] } },
{ "type": "Feature", "properties": { "rID": "50334-13944-s-7644", "lfSpanFr": "2026-03-17", "lfSpanTo": null, "tmpFlg": 0, "orgGILvl": "2500", "ftCode": "2801", "admCode": null, "devDate": null, "type": "普通鉄道", "railState": "通常部", "drwOrder": 0, "name": null, "admOfcRT": null, "vis": 0, "rtCode": null, "clElvSrc": "CTO-2024-6", "clElvCode": 22, "adjCode": 4 }, "geometry": { "type": "LineString", "coordinates": [ [ 139.82421058, 38.7406286, 15.19 ], [ 139.824195538, 38.740629329, 15.19 ], [ 139.823075947, 38.74069208, 15.14 ], [ 139.821998773, 38.740743581, 15.01 ], [ 139.821086156, 38.740790971, 14.91 ], [ 139.82049718, 38.740819138, 14.82 ], [ 139.819491618, 38.740873278, 14.54 ], [ 139.818875808, 38.740899306, 14.7 ], [ 139.817802524, 38.740955835, 14.53 ], [ 139.8166831, 38.741012114, 14.39 ], [ 139.816666667, 38.74101294, 14.39 ] ] } },
{ "type": "Feature", "properties": { "rID": "50328-13944-s-8678", "lfSpanFr": "2026-03-17", "lfSpanTo": null, "tmpFlg": 0, "orgGILvl": "2500", "ftCode": "2801", "admCode": null, "devDate": null, "type": "普通鉄道", "railState": "通常部", "drwOrder": 0, "name": null, "admOfcRT": null, "vis": 0, "rtCode": null, "clElvSrc": "CTO-2024-6", "clElvCode": 22, "adjCode": 0 }, "geometry": { "type": "LineString", "coordinates": [ [ 139.807752929, 38.741496484, 12.75 ], [ 139.808291933, 38.741465816, 13.1 ], [ 139.808333333, 38.741461577, 13.1 ] ] } },
{ "type": "Feature", "properties": { "rID": "50325-13947-s-3994", "lfSpanFr": "2026-03-17", "lfSpanTo": null, "tmpFlg": 0, "orgGILvl": "2500", "ftCode": "2801", "admCode": null, "devDate": null, "type": "普通鉄道", "railState": "通常部", "drwOrder": 0, "name": null, "admOfcRT": null, "vis": 0, "rtCode": null, "clElvSrc": "CTO-2024-6", "clElvCode": 22, "adjCode": 4 }, "geometry": { "type": "LineString", "coordinates": [ [ 139.799515929, 38.741876686, 13.65 ], [ 139.799754904, 38.741861269, 13.67 ] ] } },
{ "type": "Feature", "properties": { "rID": "50325-13947-s-4319", "lfSpanFr": "2026-03-17", "lfSpanTo": null, "tmpFlg": 0, "orgGILvl": "2500", "ftCode": "2801", "admCode": null, "devDate": null, "type": "普通鉄道", "railState": "通常部", "drwOrder": 0, "name": null, "admOfcRT": null, "vis": 0, "rtCode": null, "clElvSrc": "CTO-2024-6", "clElvCode": 22, "adjCode": 4 }, "geometry": { "type": "LineString", "coordinates": [ [ 139.79458918, 38.742125689, 13.41 ], [ 139.794535588, 38.742128664, 13.41 ], [ 139.794084167, 38.742152081, 13.39 ], [ 139.791701206, 38.742272389, 13.35 ], [ 139.791682928, 38.742273278, 13.35 ], [ 139.791666666999987, 38.742274072, 13.35 ] ] } },
{ "type": "Feature", "properties": { "rID": "50328-13944-s-8684", "lfSpanFr": "2026-03-17", "lfSpanTo": null, "tmpFlg": 0, "orgGILvl": "2500", "ftCode": "2802", "admCode": null, "devDate": null, "type": "普通鉄道", "railState": "その他", "drwOrder": 0, "name": null, "admOfcRT": null, "vis": 1, "rtCode": null, "clElvSrc": "CTO-2024-6", "clElvCode": 22, "adjCode": 6 }, "geometry": { "type": "LineString", "coordinates": [ [ 139.805876167, 38.741555402, 13.21 ], [ 139.805299246, 38.741583542, 13.38 ] ] } },
{ "type": "Feature", "properties": { "rID": "50334-13944-s-7517", "lfSpanFr": "2026-03-17", "lfSpanTo": null, "tmpFlg": 0, "orgGILvl": "2500", "ftCode": "2801", "admCode": null, "devDate": null, "type": "普通鉄道", "railState": "通常部", "drwOrder": 0, "name": null, "admOfcRT": null, "vis": 0, "rtCode": null, "clElvSrc": "CTO-2024-6", "clElvCode": 22, "adjCode": 4 }, "geometry": { "type": "LineString", "coordinates": [ [ 139.824839502, 38.740598105, 15.28 ], [ 139.824618014, 38.740608844, 15.25 ] ] } },
{ "type": "Feature", "properties": { "rID": "50328-13947-s-2251", "lfSpanFr": "2026-03-17", "lfSpanTo": null, "tmpFlg": 0, "orgGILvl": "2500", "ftCode": "2801", "admCode": null, "devDate": null, "type": "普通鉄道", "railState": "通常部", "drwOrder": 0, "name": null, "admOfcRT": null, "vis": 0, "rtCode": null, "clElvSrc": "CTO-2024-6", "clElvCode": 22, "adjCode": 4 }, "geometry": { "type": "LineString", "coordinates": [ [ 139.800264062, 38.741842017, 13.69 ], [ 139.800237685000013, 38.74184338, 13.69 ], [ 139.800016322, 38.741851963, 13.68 ], [ 139.8, 38.741852597, 13.68 ] ] } }
]
}
