{
"type": "FeatureCollection",
"name": "DKG-SHP-513351-RailTrCL3d-20231031-0001",
"crs": { "type": "name", "properties": { "name": "urn:ogc:def:crs:OGC:1.3:CRS84" } },
"features": [
{ "type": "Feature", "properties": { "rID": "47934-12390-s-3556", "lfSpanFr": "2023-06-15", "lfSpanTo": null, "tmpFlg": 0, "orgGILvl": "25000", "ftCode": "2804", "admCode": null, "devDate": null, "type": "普通鉄道", "railState": "トンネル", "drwOrder": 0, "name": null, "admOfcRT": "0", "vis": 1, "rtCode": null, "flag": 8 }, "geometry": { "type": "LineString", "coordinates": [ [ 133.158333333, 34.41807375, 227.4 ], [ 133.154571350999987, 34.416666667, 255.96 ] ] } },
{ "type": "Feature", "properties": { "rID": "47934-12390-s-3557", "lfSpanFr": "2023-06-15", "lfSpanTo": null, "tmpFlg": 0, "orgGILvl": "25000", "ftCode": "2804", "admCode": null, "devDate": null, "type": "普通鉄道", "railState": "トンネル", "drwOrder": 0, "name": null, "admOfcRT": "0", "vis": 1, "rtCode": null, "flag": 8 }, "geometry": { "type": "LineString", "coordinates": [ [ 133.158333333, 34.418115388, 226.58 ], [ 133.154459882, 34.416666667, 255.87 ] ] } },
{ "type": "Feature", "properties": { "rID": "47937-12390-s-5871", "lfSpanFr": "2023-06-15", "lfSpanTo": null, "tmpFlg": 0, "orgGILvl": "25000", "ftCode": "2804", "admCode": null, "devDate": null, "type": "普通鉄道", "railState": "トンネル", "drwOrder": 0, "name": null, "admOfcRT": "0", "vis": 1, "rtCode": null, "flag": 8 }, "geometry": { "type": "LineString", "coordinates": [ [ 133.166666666999987, 34.421190643, 164.14 ], [ 133.158333333, 34.41807375, 227.4 ] ] } },
{ "type": "Feature", "properties": { "rID": "47937-12390-s-5872", "lfSpanFr": "2023-06-15", "lfSpanTo": null, "tmpFlg": 0, "orgGILvl": "25000", "ftCode": "2804", "admCode": null, "devDate": null, "type": "普通鉄道", "railState": "トンネル", "drwOrder": 0, "name": null, "admOfcRT": "0", "vis": 1, "rtCode": null, "flag": 8 }, "geometry": { "type": "LineString", "coordinates": [ [ 133.166666666999987, 34.421232163, 163.58 ], [ 133.158333333, 34.418115388, 226.58 ] ] } },
{ "type": "Feature", "properties": { "rID": "47940-12390-s-2192", "lfSpanFr": "2023-06-15", "lfSpanTo": null, "tmpFlg": 0, "orgGILvl": "25000", "ftCode": "2804", "admCode": null, "devDate": null, "type": "普通鉄道", "railState": "トンネル", "drwOrder": 0, "name": null, "admOfcRT": "0", "vis": 1, "rtCode": null, "flag": 8 }, "geometry": { "type": "LineString", "coordinates": [ [ 133.175, 34.424307536, 100.89 ], [ 133.166666666999987, 34.421190643, 164.14 ] ] } },
{ "type": "Feature", "properties": { "rID": "47940-12390-s-2193", "lfSpanFr": "2023-06-15", "lfSpanTo": null, "tmpFlg": 0, "orgGILvl": "25000", "ftCode": "2804", "admCode": null, "devDate": null, "type": "普通鉄道", "railState": "トンネル", "drwOrder": 0, "name": null, "admOfcRT": "0", "vis": 1, "rtCode": null, "flag": 8 }, "geometry": { "type": "LineString", "coordinates": [ [ 133.175, 34.424348938, 100.57 ], [ 133.166666666999987, 34.421232163, 163.58 ] ] } },
{ "type": "Feature", "properties": { "rID": "47943-12390-s-10581", "lfSpanFr": "2023-06-15", "lfSpanTo": null, "tmpFlg": 0, "orgGILvl": "25000", "ftCode": "2804", "admCode": null, "devDate": null, "type": "普通鉄道", "railState": "トンネル", "drwOrder": 0, "name": null, "admOfcRT": "0", "vis": 1, "rtCode": null, "flag": 8 }, "geometry": { "type": "LineString", "coordinates": [ [ 133.176851374, 34.425, 86.83 ], [ 133.175, 34.424307536, 100.89 ] ] } },
{ "type": "Feature", "properties": { "rID": "47943-12390-s-10582", "lfSpanFr": "2023-06-15", "lfSpanTo": null, "tmpFlg": 0, "orgGILvl": "25000", "ftCode": "2804", "admCode": null, "devDate": null, "type": "普通鉄道", "railState": "トンネル", "drwOrder": 0, "name": null, "admOfcRT": "0", "vis": 1, "rtCode": null, "flag": 8 }, "geometry": { "type": "LineString", "coordinates": [ [ 133.176740746, 34.425, 87.41 ], [ 133.175, 34.424348938, 100.57 ] ] } },
{ "type": "Feature", "properties": { "rID": "47943-12393-s-4232", "lfSpanFr": "2023-06-15", "lfSpanTo": null, "tmpFlg": 0, "orgGILvl": "25000", "ftCode": "2802", "admCode": null, "devDate": null, "type": "普通鉄道", "railState": "その他", "drwOrder": 0, "name": null, "admOfcRT": "0", "vis": 1, "rtCode": null, "flag": 8 }, "geometry": { "type": "LineString", "coordinates": [ [ 133.182956388, 34.427324404, 40.42 ], [ 133.182549879, 34.427172691, 43.49 ] ] } },
{ "type": "Feature", "properties": { "rID": "47943-12393-s-4233", "lfSpanFr": "2023-06-15", "lfSpanTo": null, "tmpFlg": 0, "orgGILvl": "25000", "ftCode": "2802", "admCode": null, "devDate": null, "type": "普通鉄道", "railState": "その他", "drwOrder": 0, "name": null, "admOfcRT": "0", "vis": 1, "rtCode": null, "flag": 8 }, "geometry": { "type": "LineString", "coordinates": [ [ 133.182974626, 34.427288737, 40.36 ], [ 133.182567621, 34.427138027, 43.44 ] ] } },
{ "type": "Feature", "properties": { "rID": "47943-12393-s-4234", "lfSpanFr": "2023-06-15", "lfSpanTo": null, "tmpFlg": 0, "orgGILvl": "25000", "ftCode": "2804", "admCode": null, "devDate": null, "type": "普通鉄道", "railState": "トンネル", "drwOrder": 0, "name": null, "admOfcRT": "0", "vis": 1, "rtCode": null, "flag": 8 }, "geometry": { "type": "LineString", "coordinates": [ [ 133.182567621, 34.427138027, 43.44 ], [ 133.176851374, 34.425, 86.83 ] ] } },
{ "type": "Feature", "properties": { "rID": "47943-12393-s-4235", "lfSpanFr": "2023-06-15", "lfSpanTo": null, "tmpFlg": 0, "orgGILvl": "25000", "ftCode": "2804", "admCode": null, "devDate": null, "type": "普通鉄道", "railState": "トンネル", "drwOrder": 0, "name": null, "admOfcRT": "0", "vis": 1, "rtCode": null, "flag": 8 }, "geometry": { "type": "LineString", "coordinates": [ [ 133.182549879, 34.427172691, 43.49 ], [ 133.176740746, 34.425, 87.41 ] ] } },
{ "type": "Feature", "properties": { "rID": "47943-12393-s-4865", "lfSpanFr": "2023-06-15", "lfSpanTo": null, "tmpFlg": 0, "orgGILvl": "2500", "ftCode": "2801", "admCode": null, "devDate": "2022-06-30", "type": "普通鉄道", "railState": "通常部", "drwOrder": 0, "name": null, "admOfcRT": "0", "vis": 0, "rtCode": null, "flag": 4 }, "geometry": { "type": "LineString", "coordinates": [ [ 133.182956388, 34.427324404, 40.42 ], [ 133.182963593000011, 34.427327093, 40.39 ], [ 133.183170690999987, 34.427403983, 40.4 ], [ 133.183333333, 34.427466249, 40.37 ] ] } },
{ "type": "Feature", "properties": { "rID": "47943-12393-s-4866", "lfSpanFr": "2023-06-15", "lfSpanTo": null, "tmpFlg": 0, "orgGILvl": "2500", "ftCode": "2801", "admCode": null, "devDate": "2022-06-30", "type": "普通鉄道", "railState": "通常部", "drwOrder": 0, "name": null, "admOfcRT": "0", "vis": 0, "rtCode": null, "flag": 4 }, "geometry": { "type": "LineString", "coordinates": [ [ 133.182974626, 34.427288737, 40.36 ], [ 133.182981874, 34.427291421, 40.33 ], [ 133.183192036, 34.427369728, 40.32 ], [ 133.183333333, 34.427423452, 40.33 ] ] } },
{ "type": "Feature", "properties": { "rID": "47946-12393-s-19165", "lfSpanFr": "2023-06-15", "lfSpanTo": null, "tmpFlg": 0, "orgGILvl": "2500", "ftCode": "2801", "admCode": null, "devDate": "2022-06-30", "type": "普通鉄道", "railState": "通常部", "drwOrder": 0, "name": null, "admOfcRT": "0", "vis": 0, "rtCode": null, "flag": 4 }, "geometry": { "type": "LineString", "coordinates": [ [ 133.183333333, 34.427423452, 40.33 ], [ 133.183551535, 34.427506415, 40.33 ] ] } },
{ "type": "Feature", "properties": { "rID": "47946-12393-s-19166", "lfSpanFr": "2023-06-15", "lfSpanTo": null, "tmpFlg": 0, "orgGILvl": "2500", "ftCode": "2801", "admCode": null, "devDate": "2022-06-30", "type": "普通鉄道", "railState": "通常部", "drwOrder": 0, "name": null, "admOfcRT": "0", "vis": 0, "rtCode": null, "flag": 4 }, "geometry": { "type": "LineString", "coordinates": [ [ 133.183333333, 34.427466249, 40.37 ], [ 133.183555864, 34.427551442, 40.36 ] ] } },
{ "type": "Feature", "properties": { "rID": "47946-12393-s-19167", "lfSpanFr": "2023-06-15", "lfSpanTo": null, "tmpFlg": 0, "orgGILvl": "2500", "ftCode": "2802", "admCode": null, "devDate": "2022-06-30", "type": "普通鉄道", "railState": "その他", "drwOrder": 0, "name": null, "admOfcRT": "0", "vis": 1, "rtCode": null, "flag": 8 }, "geometry": { "type": "LineString", "coordinates": [ [ 133.183555864, 34.427551442, 40.36 ], [ 133.183605513, 34.427570508, 40.39 ] ] } },
{ "type": "Feature", "properties": { "rID": "47946-12393-s-19168", "lfSpanFr": "2023-06-15", "lfSpanTo": null, "tmpFlg": 0, "orgGILvl": "2500", "ftCode": "2802", "admCode": null, "devDate": "2022-06-30", "type": "普通鉄道", "railState": "その他", "drwOrder": 0, "name": null, "admOfcRT": "0", "vis": 1, "rtCode": null, "flag": 8 }, "geometry": { "type": "LineString", "coordinates": [ [ 133.183551535, 34.427506415, 40.33 ], [ 133.183600805, 34.427525188, 40.34 ] ] } },
{ "type": "Feature", "properties": { "rID": "47946-12393-s-19169", "lfSpanFr": "2023-06-15", "lfSpanTo": null, "tmpFlg": 0, "orgGILvl": "2500", "ftCode": "2801", "admCode": null, "devDate": "2022-06-30", "type": "普通鉄道", "railState": "通常部", "drwOrder": 0, "name": null, "admOfcRT": "0", "vis": 0, "rtCode": null, "flag": 4 }, "geometry": { "type": "LineString", "coordinates": [ [ 133.184854564, 34.428041806, 40.29 ], [ 133.184901161, 34.428059411, 40.28 ] ] } },
{ "type": "Feature", "properties": { "rID": "47946-12393-s-19170", "lfSpanFr": "2023-06-15", "lfSpanTo": null, "tmpFlg": 0, "orgGILvl": "2500", "ftCode": "2801", "admCode": null, "devDate": "2022-06-30", "type": "普通鉄道", "railState": "通常部", "drwOrder": 0, "name": null, "admOfcRT": "0", "vis": 0, "rtCode": null, "flag": 4 }, "geometry": { "type": "LineString", "coordinates": [ [ 133.184888491, 34.428008735, 40.25 ], [ 133.184934631, 34.428025969, 40.27 ] ] } },
{ "type": "Feature", "properties": { "rID": "47946-12393-s-19171", "lfSpanFr": "2023-06-15", "lfSpanTo": null, "tmpFlg": 0, "orgGILvl": "2500", "ftCode": "2801", "admCode": null, "devDate": "2022-06-30", "type": "普通鉄道", "railState": "通常部", "drwOrder": 0, "name": null, "admOfcRT": "0", "vis": 0, "rtCode": null, "flag": 4 }, "geometry": { "type": "LineString", "coordinates": [ [ 133.185809368, 34.428351683, 40.14 ], [ 133.18598151, 34.428414975, 40.13 ] ] } },
{ "type": "Feature", "properties": { "rID": "47946-12393-s-19172", "lfSpanFr": "2023-06-15", "lfSpanTo": null, "tmpFlg": 0, "orgGILvl": "2500", "ftCode": "2801", "admCode": null, "devDate": "2022-06-30", "type": "普通鉄道", "railState": "通常部", "drwOrder": 0, "name": null, "admOfcRT": "0", "vis": 0, "rtCode": null, "flag": 4 }, "geometry": { "type": "LineString", "coordinates": [ [ 133.18578770900001, 34.428387907, 40.17 ], [ 133.185981688999988, 34.428456623, 40.12 ] ] } },
{ "type": "Feature", "properties": { "rID": "47946-12393-s-19173", "lfSpanFr": "2023-06-15", "lfSpanTo": null, "tmpFlg": 0, "orgGILvl": "2500", "ftCode": "2802", "admCode": null, "devDate": "2022-06-30", "type": "普通鉄道", "railState": "その他", "drwOrder": 0, "name": null, "admOfcRT": "0", "vis": 1, "rtCode": null, "flag": 8 }, "geometry": { "type": "LineString", "coordinates": [ [ 133.185770773, 34.428381925, 40.17 ], [ 133.18578770900001, 34.428387907, 40.17 ] ] } },
{ "type": "Feature", "properties": { "rID": "47946-12393-s-19174", "lfSpanFr": "2023-06-15", "lfSpanTo": null, "tmpFlg": 0, "orgGILvl": "2500", "ftCode": "2802", "admCode": null, "devDate": "2022-06-30", "type": "普通鉄道", "railState": "その他", "drwOrder": 0, "name": null, "admOfcRT": "0", "vis": 1, "rtCode": null, "flag": 8 }, "geometry": { "type": "LineString", "coordinates": [ [ 133.185792219, 34.428345411, 40.13 ], [ 133.185809368, 34.428351683, 40.14 ] ] } },
{ "type": "Feature", "properties": { "rID": "47946-12393-s-19175", "lfSpanFr": "2023-06-15", "lfSpanTo": null, "tmpFlg": 0, "orgGILvl": "2500", "ftCode": "2801", "admCode": null, "devDate": "2022-06-30", "type": "普通鉄道", "railState": "通常部", "drwOrder": 0, "name": null, "admOfcRT": "0", "vis": 0, "rtCode": null, "flag": 4 }, "geometry": { "type": "LineString", "coordinates": [ [ 133.186047497, 34.428440018, 40.13 ], [ 133.18598151, 34.428414975, 40.13 ] ] } },
{ "type": "Feature", "properties": { "rID": "47946-12393-s-19176", "lfSpanFr": "2023-06-15", "lfSpanTo": null, "tmpFlg": 0, "orgGILvl": "2500", "ftCode": "2801", "admCode": null, "devDate": "2022-06-30", "type": "普通鉄道", "railState": "通常部", "drwOrder": 0, "name": null, "admOfcRT": "0", "vis": 0, "rtCode": null, "flag": 4 }, "geometry": { "type": "LineString", "coordinates": [ [ 133.186404028, 34.428616849, 40.08 ], [ 133.185981688999988, 34.428456623, 40.12 ] ] } },
{ "type": "Feature", "properties": { "rID": "47946-12393-s-19487", "lfSpanFr": "2023-06-15", "lfSpanTo": null, "tmpFlg": 0, "orgGILvl": "2500", "ftCode": "2801", "admCode": null, "devDate": "2022-06-30", "type": "普通鉄道", "railState": "通常部", "drwOrder": 0, "name": null, "admOfcRT": "0", "vis": 0, "rtCode": null, "flag": 4 }, "geometry": { "type": "LineString", "coordinates": [ [ 133.183605513, 34.427570508, 40.39 ], [ 133.183765188, 34.427631628, 40.36 ], [ 133.1843475, 34.427850177, 40.33 ], [ 133.184854564, 34.428041806, 40.29 ] ] } },
{ "type": "Feature", "properties": { "rID": "47946-12393-s-19488", "lfSpanFr": "2023-06-15", "lfSpanTo": null, "tmpFlg": 0, "orgGILvl": "2500", "ftCode": "2801", "admCode": null, "devDate": "2022-06-30", "type": "普通鉄道", "railState": "通常部", "drwOrder": 0, "name": null, "admOfcRT": "0", "vis": 0, "rtCode": null, "flag": 4 }, "geometry": { "type": "LineString", "coordinates": [ [ 133.183600805, 34.427525188, 40.34 ], [ 133.183785091, 34.427595222, 40.32 ], [ 133.184367404, 34.427813771, 40.29 ], [ 133.184888491, 34.428008735, 40.25 ] ] } },
{ "type": "Feature", "properties": { "rID": "47946-12393-s-19489", "lfSpanFr": "2023-06-15", "lfSpanTo": null, "tmpFlg": 0, "orgGILvl": "2500", "ftCode": "2801", "admCode": null, "devDate": "2022-06-30", "type": "普通鉄道", "railState": "通常部", "drwOrder": 0, "name": null, "admOfcRT": "0", "vis": 0, "rtCode": null, "flag": 4 }, "geometry": { "type": "LineString", "coordinates": [ [ 133.184901161, 34.428059411, 40.28 ], [ 133.185049514000013, 34.428115416, 40.29 ], [ 133.185625152, 34.428330318, 40.19 ], [ 133.185770773, 34.428381925, 40.17 ] ] } },
{ "type": "Feature", "properties": { "rID": "47946-12393-s-19490", "lfSpanFr": "2023-06-15", "lfSpanTo": null, "tmpFlg": 0, "orgGILvl": "2500", "ftCode": "2801", "admCode": null, "devDate": "2022-06-30", "type": "普通鉄道", "railState": "通常部", "drwOrder": 0, "name": null, "admOfcRT": "0", "vis": 0, "rtCode": null, "flag": 4 }, "geometry": { "type": "LineString", "coordinates": [ [ 133.184934631, 34.428025969, 40.27 ], [ 133.185085343, 34.428082393, 40.23 ], [ 133.185646117, 34.428291739, 40.14 ], [ 133.185792219, 34.428345411, 40.13 ] ] } },
{ "type": "Feature", "properties": { "rID": "47946-12393-s-19491", "lfSpanFr": "2023-06-15", "lfSpanTo": null, "tmpFlg": 0, "orgGILvl": "2500", "ftCode": "2801", "admCode": null, "devDate": "2022-06-30", "type": "普通鉄道", "railState": "通常部", "drwOrder": 0, "name": null, "admOfcRT": "0", "vis": 0, "rtCode": null, "flag": 8 }, "geometry": { "type": "LineString", "coordinates": [ [ 133.186047497000118, 34.428440018, 40.13 ], [ 133.18685176300005, 34.428745242000048, 39.86 ], [ 133.186886691000041, 34.428754597000022, 39.86 ], [ 133.186993370999971, 34.428795266000066, 39.86 ], [ 133.187069993000136, 34.428824467000084, 39.86 ], [ 133.187208262000127, 34.428877132000139, 39.86 ], [ 133.188167308999937, 34.429225761000112, 39.86 ], [ 133.188446833999933, 34.429335031999983, 39.86 ], [ 133.188487937, 34.429351006000047, 39.86 ], [ 133.18883064900001, 34.429484991000038, 39.86 ], [ 133.189188511999987, 34.429612175999978, 39.86 ], [ 133.18935997799997, 34.429674659000113, 39.86 ], [ 133.189410795999947, 34.429693256000121, 39.86 ], [ 133.189543356000058, 34.429741550000074, 39.86 ], [ 133.189746996000054, 34.429819359000021, 39.86 ], [ 133.190465694000181, 34.430093892000059, 39.86 ], [ 133.190926838000109, 34.430267808000053, 39.86 ], [ 133.191258659000141, 34.430391329000088, 39.86 ], [ 133.191666666999936, 34.430544375000125, 39.580000000000155 ] ] } },
{ "type": "Feature", "properties": { "rID": "47946-12393-s-19492", "lfSpanFr": "2023-06-15", "lfSpanTo": null, "tmpFlg": 0, "orgGILvl": "2500", "ftCode": "2801", "admCode": null, "devDate": "2022-06-30", "type": "普通鉄道", "railState": "通常部", "drwOrder": 0, "name": null, "admOfcRT": "0", "vis": 0, "rtCode": null, "flag": 8 }, "geometry": { "type": "LineString", "coordinates": [ [ 133.191666666999936, 34.430488978999961, 39.52 ], [ 133.191080882000051, 34.430266517999939, 39.83 ], [ 133.189732716000094, 34.429763494999975, 39.83 ], [ 133.189410186000032, 34.429643228000089, 39.83 ], [ 133.189345592999985, 34.429619156000058, 39.83 ], [ 133.188511788000142, 34.429308346000084, 39.83 ], [ 133.1884701460001, 34.429292736999969, 39.83 ], [ 133.187652741999955, 34.428988004000075, 39.83 ], [ 133.187115789000018, 34.428796948999945, 39.83 ], [ 133.187038207, 34.428769289, 39.83 ], [ 133.186886869000091, 34.428715470000043, 39.83 ], [ 133.186862611000038, 34.428706838000039, 39.83 ], [ 133.186047497000118, 34.428440018, 40.130000000000109 ] ] } },
{ "type": "Feature", "properties": { "rID": "47946-12393-s-19493", "lfSpanFr": "2023-06-15", "lfSpanTo": null, "tmpFlg": 0, "orgGILvl": "2500", "ftCode": "2801", "admCode": null, "devDate": "2022-06-30", "type": "普通鉄道", "railState": "通常部", "drwOrder": 0, "name": null, "admOfcRT": "0", "vis": 0, "rtCode": null, "flag": 8 }, "geometry": { "type": "LineString", "coordinates": [ [ 133.18640402799997, 34.42861684899998, 40.08 ], [ 133.186730914, 34.428756257000146, 39.79 ], [ 133.186888062999969, 34.428822738999941, 39.79 ], [ 133.186922174000074, 34.428836428000125, 39.79 ], [ 133.186998816000028, 34.428867251000099, 39.79 ], [ 133.187456803000146, 34.429051121999919, 39.79 ], [ 133.188407449000124, 34.429406490000019, 39.79 ], [ 133.188448434000065, 34.429421744000081, 39.79 ], [ 133.189385317000074, 34.429771990000063, 39.79 ], [ 133.189411875000133, 34.429781865000109, 39.79 ], [ 133.189772007000101, 34.429916511999977, 39.79 ], [ 133.190715572000045, 34.430269576999933, 39.79 ], [ 133.191666666999936, 34.430623896000043, 39.5 ] ] } },
{ "type": "Feature", "properties": { "rID": "47946-12393-s-19494", "lfSpanFr": "2023-06-15", "lfSpanTo": null, "tmpFlg": 0, "orgGILvl": "2500", "ftCode": "2801", "admCode": null, "devDate": "2022-06-30", "type": "普通鉄道", "railState": "通常部", "drwOrder": 0, "name": null, "admOfcRT": "0", "vis": 0, "rtCode": null, "flag": 8 }, "geometry": { "type": "LineString", "coordinates": [ [ 133.191666666999936, 34.430586795000067, 39.63 ], [ 133.191259195000043, 34.430435228000078, 39.63 ], [ 133.190814678000038, 34.430268747000071, 39.84 ], [ 133.190499421000027, 34.430147340000076, 39.84 ], [ 133.189886916000091, 34.429909060000057, 39.84 ], [ 133.189757958000087, 34.429861818000063, 39.84 ], [ 133.189411301000064, 34.429734721000102, 39.84 ], [ 133.189371848000064, 34.429720266000061, 39.84 ], [ 133.189158303000113, 34.429641997999965, 39.84 ], [ 133.188866658000052, 34.429538329000025, 39.84 ], [ 133.188468666000176, 34.429385605, 39.84 ], [ 133.188427566000087, 34.429369900999916, 39.84 ], [ 133.188139649000163, 34.429259438000145, 39.84 ], [ 133.187150986, 34.428899968000053, 39.84 ], [ 133.187025386000073, 34.428851253, 39.84 ], [ 133.186948320000056, 34.428821335, 39.84 ], [ 133.186887213999967, 34.428797594000116, 39.84 ], [ 133.186772479000069, 34.428756631, 39.84 ], [ 133.18640402799997, 34.42861684899998, 40.08 ] ] } },
{ "type": "Feature", "properties": { "rID": "47949-12393-s-9498", "lfSpanFr": "2023-06-15", "lfSpanTo": null, "tmpFlg": 0, "orgGILvl": "2500", "ftCode": "2801", "admCode": null, "devDate": "2022-06-30", "type": "普通鉄道", "railState": "通常部", "drwOrder": 0, "name": null, "admOfcRT": "0", "vis": 0, "rtCode": null, "flag": 4 }, "geometry": { "type": "LineString", "coordinates": [ [ 133.193665073000147, 34.431288965000078, 39.330000000000268 ], [ 133.194160563999958, 34.431476824000072, 42.72 ] ] } },
{ "type": "Feature", "properties": { "rID": "47949-12393-s-9499", "lfSpanFr": "2023-06-15", "lfSpanTo": null, "tmpFlg": 0, "orgGILvl": "2500", "ftCode": "2801", "admCode": null, "devDate": "2022-06-30", "type": "普通鉄道", "railState": "通常部", "drwOrder": 0, "name": null, "admOfcRT": "0", "vis": 0, "rtCode": null, "flag": 4 }, "geometry": { "type": "LineString", "coordinates": [ [ 133.193634859000014, 34.431327262, 39.34 ], [ 133.194137192, 34.431514072, 39.47 ] ] } },
{ "type": "Feature", "properties": { "rID": "47949-12393-s-9635", "lfSpanFr": "2023-06-15", "lfSpanTo": null, "tmpFlg": 0, "orgGILvl": "2500", "ftCode": "2801", "admCode": null, "devDate": "2022-06-30", "type": "普通鉄道", "railState": "通常部", "drwOrder": 0, "name": null, "admOfcRT": "0", "vis": 0, "rtCode": null, "flag": 4 }, "geometry": { "type": "LineString", "coordinates": [ [ 133.191666667, 34.430623896, 39.5 ], [ 133.191725905999988, 34.430645965, 39.51 ], [ 133.192659225, 34.430996126, 39.43 ], [ 133.193118356000014, 34.431155896, 39.44 ], [ 133.193165666, 34.431172267, 39.42 ], [ 133.193275369, 34.431210471, 39.38 ], [ 133.193634859000014, 34.431327262, 39.34 ] ] } },
{ "type": "Feature", "properties": { "rID": "47949-12393-s-9636", "lfSpanFr": "2023-06-15", "lfSpanTo": null, "tmpFlg": 0, "orgGILvl": "2500", "ftCode": "2801", "admCode": null, "devDate": "2022-06-30", "type": "普通鉄道", "railState": "通常部", "drwOrder": 0, "name": null, "admOfcRT": "0", "vis": 0, "rtCode": null, "flag": 4 }, "geometry": { "type": "LineString", "coordinates": [ [ 133.193634859000014, 34.431327262, 39.34 ], [ 133.193285933999988, 34.431193614, 39.39 ], [ 133.193168104, 34.431149168, 39.4 ], [ 133.193120666999988, 34.431131356, 39.44 ], [ 133.192672632000011, 34.430962567, 39.5 ], [ 133.191994427999987, 34.430708712, 39.57 ], [ 133.191666667, 34.430586795, 39.63 ] ] } },
{ "type": "Feature", "properties": { "rID": "47949-12393-s-9637", "lfSpanFr": "2023-06-15", "lfSpanTo": null, "tmpFlg": 0, "orgGILvl": "2500", "ftCode": "2801", "admCode": null, "devDate": "2022-06-30", "type": "普通鉄道", "railState": "通常部", "drwOrder": 0, "name": null, "admOfcRT": "0", "vis": 0, "rtCode": null, "flag": 4 }, "geometry": { "type": "LineString", "coordinates": [ [ 133.193665073, 34.431288965, 39.33 ], [ 133.193175329000013, 34.431081584, 39.4 ], [ 133.193127317, 34.431061253, 39.39 ], [ 133.192725724000013, 34.430891173, 39.39 ], [ 133.191666667, 34.430488979, 39.52 ] ] } },
{ "type": "Feature", "properties": { "rID": "47949-12393-s-9638", "lfSpanFr": "2023-06-15", "lfSpanTo": null, "tmpFlg": 0, "orgGILvl": "2500", "ftCode": "2801", "admCode": null, "devDate": "2022-06-30", "type": "普通鉄道", "railState": "通常部", "drwOrder": 0, "name": null, "admOfcRT": "0", "vis": 0, "rtCode": null, "flag": 4 }, "geometry": { "type": "LineString", "coordinates": [ [ 133.191666667, 34.430544375, 39.58 ], [ 133.192013266, 34.430674387, 39.58 ], [ 133.192869322, 34.430987601, 39.43 ], [ 133.193125098, 34.43108444, 39.38 ], [ 133.193173083, 34.431102608, 39.39 ], [ 133.193665073, 34.431288965, 39.33 ] ] } },
{ "type": "Feature", "properties": { "rID": "47949-12393-s-9639", "lfSpanFr": "2023-06-15", "lfSpanTo": null, "tmpFlg": 0, "orgGILvl": "25000", "ftCode": "2804", "admCode": null, "devDate": null, "type": "普通鉄道", "railState": "トンネル", "drwOrder": 0, "name": null, "admOfcRT": null, "vis": 1, "rtCode": null, "flag": 8 }, "geometry": { "type": "LineString", "coordinates": [ [ 133.198926755, 34.433333333, 37.85 ], [ 133.198764563, 34.433265708, 37.91 ], [ 133.197783006, 34.43287908, 38.24 ], [ 133.196587786, 34.432424464, 38.64 ], [ 133.195148865, 34.431888858, 39.13 ], [ 133.194137192, 34.431514072, 39.47 ] ] } },
{ "type": "Feature", "properties": { "rID": "47949-12393-s-9640", "lfSpanFr": "2023-06-15", "lfSpanTo": null, "tmpFlg": 0, "orgGILvl": "25000", "ftCode": "2804", "admCode": null, "devDate": null, "type": "普通鉄道", "railState": "トンネル", "drwOrder": 0, "name": null, "admOfcRT": null, "vis": 1, "rtCode": null, "flag": 8 }, "geometry": { "type": "LineString", "coordinates": [ [ 133.199033262000057, 34.433333333000121, 43.970000000000141 ], [ 133.198814582000182, 34.43324208100006, 44.09 ], [ 133.197810295999943, 34.432845403999977, 44.62 ], [ 133.196642482000016, 34.432400200000131, 45.230000000000132 ], [ 133.195153804000142, 34.431844927999975, 46.01 ], [ 133.194160563999958, 34.431476824000072, 42.72 ] ] } },
{ "type": "Feature", "properties": { "rID": "47949-12396-s-15836", "lfSpanFr": "2023-06-15", "lfSpanTo": null, "tmpFlg": 0, "orgGILvl": "25000", "ftCode": "2804", "admCode": null, "devDate": null, "type": "普通鉄道", "railState": "トンネル", "drwOrder": 0, "name": null, "admOfcRT": null, "vis": 1, "rtCode": null, "flag": 8 }, "geometry": { "type": "LineString", "coordinates": [ [ 133.2, 34.433782785, 37.48 ], [ 133.199925331, 34.433749686, 37.51 ], [ 133.198926755, 34.433333333, 37.85 ] ] } },
{ "type": "Feature", "properties": { "rID": "47949-12396-s-15837", "lfSpanFr": "2023-06-15", "lfSpanTo": null, "tmpFlg": 0, "orgGILvl": "25000", "ftCode": "2804", "admCode": null, "devDate": null, "type": "普通鉄道", "railState": "トンネル", "drwOrder": 0, "name": null, "admOfcRT": null, "vis": 1, "rtCode": null, "flag": 8 }, "geometry": { "type": "LineString", "coordinates": [ [ 133.2, 34.433737809, 43.45 ], [ 133.199947544, 34.433714853, 43.48 ], [ 133.199033262, 34.433333333, 43.97 ] ] } },
{ "type": "Feature", "properties": { "rID": "47952-12396-s-4277", "lfSpanFr": "2023-06-15", "lfSpanTo": null, "tmpFlg": 0, "orgGILvl": "25000", "ftCode": "2804", "admCode": null, "devDate": null, "type": "普通鉄道", "railState": "トンネル", "drwOrder": 0, "name": null, "admOfcRT": null, "vis": 1, "rtCode": null, "flag": 8 }, "geometry": { "type": "LineString", "coordinates": [ [ 133.208333333000013, 34.438365527, 34.4 ], [ 133.206638046, 34.437303715, 35.05 ], [ 133.206266791, 34.437075203, 35.2 ], [ 133.205224232, 34.436447647, 35.59 ], [ 133.204502639999987, 34.436029139, 35.86 ], [ 133.203612411, 34.435535108, 36.19 ], [ 133.202755658, 34.435083966, 36.5 ], [ 133.201952368, 34.434681509, 36.79 ], [ 133.201276119999989, 34.43435739, 37.03 ], [ 133.200789398000012, 34.434132709, 37.2 ], [ 133.2, 34.433782785, 37.48 ] ] } },
{ "type": "Feature", "properties": { "rID": "47952-12396-s-4278", "lfSpanFr": "2023-06-15", "lfSpanTo": null, "tmpFlg": 0, "orgGILvl": "25000", "ftCode": "2804", "admCode": null, "devDate": null, "type": "普通鉄道", "railState": "トンネル", "drwOrder": 0, "name": null, "admOfcRT": null, "vis": 1, "rtCode": null, "flag": 8 }, "geometry": { "type": "LineString", "coordinates": [ [ 133.208333333000013, 34.438316155, 38.66 ], [ 133.206666489000014, 34.437272146, 39.66 ], [ 133.205763956999988, 34.436720887, 40.2 ], [ 133.205389062, 34.436496704, 40.42 ], [ 133.204578859, 34.436024723, 40.89 ], [ 133.203634441, 34.435499989, 41.43 ], [ 133.202755507, 34.435037564, 41.93 ], [ 133.201972117, 34.434645428, 42.37 ], [ 133.200987758, 34.434178463, 42.91 ], [ 133.200385563, 34.433906545, 43.24 ], [ 133.2, 34.433737809, 43.45 ] ] } },
{ "type": "Feature", "properties": { "rID": "47955-12393-s-3130", "lfSpanFr": "2023-06-15", "lfSpanTo": null, "tmpFlg": 0, "orgGILvl": "2500", "ftCode": "2821", "admCode": null, "devDate": "2022-06-30", "type": "索道", "railState": "通常部", "drwOrder": 0, "name": null, "admOfcRT": "0", "vis": 0, "rtCode": null, "flag": 4 }, "geometry": { "type": "LineString", "coordinates": [ [ 133.216666667, 34.428587842, 49.91 ], [ 133.216567468, 34.428552687, 50.26 ] ] } },
{ "type": "Feature", "properties": { "rID": "47955-12396-s-1980", "lfSpanFr": "2023-06-15", "lfSpanTo": null, "tmpFlg": 0, "orgGILvl": "25000", "ftCode": "2804", "admCode": null, "devDate": null, "type": "普通鉄道", "railState": "トンネル", "drwOrder": 0, "name": null, "admOfcRT": null, "vis": 1, "rtCode": null, "flag": 8 }, "geometry": { "type": "LineString", "coordinates": [ [ 133.213668026, 34.441666667, 35.46 ], [ 133.211136603, 34.440076068, 36.98 ], [ 133.209081805000011, 34.438784952, 38.21 ], [ 133.208333333000013, 34.438316155, 38.66 ] ] } },
{ "type": "Feature", "properties": { "rID": "47955-12396-s-1981", "lfSpanFr": "2023-06-15", "lfSpanTo": null, "tmpFlg": 0, "orgGILvl": "25000", "ftCode": "2804", "admCode": null, "devDate": null, "type": "普通鉄道", "railState": "トンネル", "drwOrder": 0, "name": null, "admOfcRT": null, "vis": 1, "rtCode": null, "flag": 8 }, "geometry": { "type": "LineString", "coordinates": [ [ 133.21358930400001, 34.441666667, 32.37 ], [ 133.211105503999988, 34.440105981, 33.33 ], [ 133.209042926, 34.438809967, 34.13 ], [ 133.208333333000013, 34.438365527, 34.4 ] ] } },
{ "type": "Feature", "properties": { "rID": "47955-12399-s-1969", "lfSpanFr": "2023-06-15", "lfSpanTo": null, "tmpFlg": 0, "orgGILvl": "25000", "ftCode": "2804", "admCode": null, "devDate": null, "type": "普通鉄道", "railState": "トンネル", "drwOrder": 0, "name": null, "admOfcRT": null, "vis": 1, "rtCode": null, "flag": 8 }, "geometry": { "type": "LineString", "coordinates": [ [ 133.216666667, 34.443600316, 31.18 ], [ 133.215962653, 34.443157952, 31.45 ], [ 133.213639029, 34.441697912, 32.35 ], [ 133.21358930400001, 34.441666667, 32.37 ] ] } },
{ "type": "Feature", "properties": { "rID": "47955-12399-s-1970", "lfSpanFr": "2023-06-15", "lfSpanTo": null, "tmpFlg": 0, "orgGILvl": "25000", "ftCode": "2804", "admCode": null, "devDate": null, "type": "普通鉄道", "railState": "トンネル", "drwOrder": 0, "name": null, "admOfcRT": null, "vis": 1, "rtCode": null, "flag": 8 }, "geometry": { "type": "LineString", "coordinates": [ [ 133.216666667, 34.443550837, 33.67 ], [ 133.215983813, 34.443121772, 34.08 ], [ 133.213687238, 34.441678738, 35.45 ], [ 133.213668026, 34.441666667, 35.46 ] ] } },
{ "type": "Feature", "properties": { "rID": "47958-12393-s-7232", "lfSpanFr": "2023-06-15", "lfSpanTo": null, "tmpFlg": 0, "orgGILvl": "2500", "ftCode": "2821", "admCode": null, "devDate": "2022-06-30", "type": "索道", "railState": "通常部", "drwOrder": 0, "name": null, "admOfcRT": "0", "vis": 0, "rtCode": null, "flag": 4 }, "geometry": { "type": "LineString", "coordinates": [ [ 133.217157914000012, 34.428640201, 56.64 ], [ 133.21696698400001, 34.428414752, 55.9 ] ] } },
{ "type": "Feature", "properties": { "rID": "47958-12393-s-7233", "lfSpanFr": "2023-06-15", "lfSpanTo": null, "tmpFlg": 0, "orgGILvl": "2500", "ftCode": "2821", "admCode": null, "devDate": "2022-06-30", "type": "索道", "railState": "通常部", "drwOrder": 0, "name": null, "admOfcRT": "0", "vis": 0, "rtCode": null, "flag": 4 }, "geometry": { "type": "LineString", "coordinates": [ [ 133.217295675, 34.428616119, 52.51 ], [ 133.217271266000012, 34.428578195, 53.37 ], [ 133.217226993, 34.42850925, 53.42 ], [ 133.217197809999988, 34.428463704, 51.03 ], [ 133.217161417, 34.428407132, 55.27 ] ] } },
{ "type": "Feature", "properties": { "rID": "47958-12393-s-7234", "lfSpanFr": "2023-06-15", "lfSpanTo": null, "tmpFlg": 0, "orgGILvl": "2500", "ftCode": "2821", "admCode": null, "devDate": "2022-06-30", "type": "索道", "railState": "通常部", "drwOrder": 0, "name": null, "admOfcRT": "0", "vis": 0, "rtCode": null, "flag": 4 }, "geometry": { "type": "LineString", "coordinates": [ [ 133.217248086000012, 34.428464714, 56.65 ], [ 133.217197809999988, 34.428463704, 51.03 ], [ 133.217077341, 34.428461223, 53.79 ] ] } },
{ "type": "Feature", "properties": { "rID": "47958-12393-s-7235", "lfSpanFr": "2023-06-15", "lfSpanTo": null, "tmpFlg": 0, "orgGILvl": "2500", "ftCode": "2821", "admCode": null, "devDate": "2022-06-30", "type": "索道", "railState": "通常部", "drwOrder": 0, "name": null, "admOfcRT": "0", "vis": 0, "rtCode": null, "flag": 4 }, "geometry": { "type": "LineString", "coordinates": [ [ 133.216991185000012, 34.428670841, 46.65 ], [ 133.216775102000014, 34.42862627, 50.63 ], [ 133.216666667, 34.428587842, 49.91 ] ] } },
{ "type": "Feature", "properties": { "rID": "47958-12393-s-7236", "lfSpanFr": "2023-06-15", "lfSpanTo": null, "tmpFlg": 0, "orgGILvl": "2500", "ftCode": "2821", "admCode": null, "devDate": "2022-06-30", "type": "索道", "railState": "通常部", "drwOrder": 0, "name": null, "admOfcRT": "0", "vis": 0, "rtCode": null, "flag": 4 }, "geometry": { "type": "LineString", "coordinates": [ [ 133.216951352, 34.428426245, 55.55 ], [ 133.216962604, 34.428629888, 50.65 ], [ 133.216894571000012, 34.428627137, 47.92 ] ] } },
{ "type": "Feature", "properties": { "rID": "47958-12393-s-7237", "lfSpanFr": "2023-06-15", "lfSpanTo": null, "tmpFlg": 0, "orgGILvl": "2500", "ftCode": "2821", "admCode": null, "devDate": "2022-06-30", "type": "索道", "railState": "通常部", "drwOrder": 0, "name": null, "admOfcRT": "0", "vis": 0, "rtCode": null, "flag": 4 }, "geometry": { "type": "LineString", "coordinates": [ [ 133.21701735900001, 34.429789021, 55.24 ], [ 133.216869812999988, 34.42933548, 42.41 ] ] } },
{ "type": "Feature", "properties": { "rID": "47958-12399-s-2057", "lfSpanFr": "2023-06-15", "lfSpanTo": null, "tmpFlg": 0, "orgGILvl": "25000", "ftCode": "2804", "admCode": null, "devDate": null, "type": "普通鉄道", "railState": "トンネル", "drwOrder": 0, "name": null, "admOfcRT": null, "vis": 1, "rtCode": null, "flag": 8 }, "geometry": { "type": "LineString", "coordinates": [ [ 133.225, 34.448836534, 27.96 ], [ 133.223684966, 34.448010237, 28.47 ], [ 133.22173886600001, 34.446787413, 29.22 ], [ 133.219818190000012, 34.445580563, 29.96 ], [ 133.217748183999987, 34.444279883, 30.76 ], [ 133.216666667, 34.443600316, 31.18 ] ] } },
{ "type": "Feature", "properties": { "rID": "47958-12399-s-2058", "lfSpanFr": "2023-06-15", "lfSpanTo": null, "tmpFlg": 0, "orgGILvl": "25000", "ftCode": "2804", "admCode": null, "devDate": null, "type": "普通鉄道", "railState": "トンネル", "drwOrder": 0, "name": null, "admOfcRT": null, "vis": 1, "rtCode": null, "flag": 8 }, "geometry": { "type": "LineString", "coordinates": [ [ 133.225, 34.448787019, 28.67 ], [ 133.223721353, 34.447983591, 29.44 ], [ 133.221777866999986, 34.446762418, 30.6 ], [ 133.219839359, 34.445544373, 31.77 ], [ 133.217764734000014, 34.444240799, 33.01 ], [ 133.216666667, 34.443550837, 33.67 ] ] } },
{ "type": "Feature", "properties": { "rID": "47961-12390-s-8148", "lfSpanFr": "2023-06-15", "lfSpanTo": null, "tmpFlg": 0, "orgGILvl": "2500", "ftCode": "2801", "admCode": null, "devDate": "2022-06-30", "type": "普通鉄道", "railState": "通常部", "drwOrder": 0, "name": null, "admOfcRT": "0", "vis": 0, "rtCode": null, "flag": 4 }, "geometry": { "type": "LineString", "coordinates": [ [ 133.230268375, 34.417923311, 4.39 ], [ 133.230458792, 34.417128241, 5.36 ], [ 133.230509998, 34.416885382, 5.59 ], [ 133.230549742, 34.416666667, 5.83 ] ] } },
{ "type": "Feature", "properties": { "rID": "47961-12390-s-8149", "lfSpanFr": "2023-06-15", "lfSpanTo": null, "tmpFlg": 0, "orgGILvl": "2500", "ftCode": "2801", "admCode": null, "devDate": "2022-06-30", "type": "普通鉄道", "railState": "通常部", "drwOrder": 0, "name": null, "admOfcRT": "0", "vis": 0, "rtCode": null, "flag": 4 }, "geometry": { "type": "LineString", "coordinates": [ [ 133.230266086, 34.417742579, 4.52 ], [ 133.230416064999986, 34.417121581, 5.25 ], [ 133.230467065, 34.416879625, 5.47 ], [ 133.230505758, 34.416666667, 5.74 ] ] } },
{ "type": "Feature", "properties": { "rID": "47961-12390-s-8150", "lfSpanFr": "2023-06-15", "lfSpanTo": null, "tmpFlg": 0, "orgGILvl": "2500", "ftCode": "2802", "admCode": null, "devDate": "2022-06-30", "type": "普通鉄道", "railState": "その他", "drwOrder": 0, "name": null, "admOfcRT": "0", "vis": 1, "rtCode": null, "flag": 8 }, "geometry": { "type": "LineString", "coordinates": [ [ 133.230166, 34.418392077, 3.9 ], [ 133.230196965, 34.418246685, 4.08 ] ] } },
{ "type": "Feature", "properties": { "rID": "47961-12390-s-8151", "lfSpanFr": "2023-06-15", "lfSpanTo": null, "tmpFlg": 0, "orgGILvl": "2500", "ftCode": "2802", "admCode": null, "devDate": "2022-06-30", "type": "普通鉄道", "railState": "その他", "drwOrder": 0, "name": null, "admOfcRT": "0", "vis": 1, "rtCode": null, "flag": 8 }, "geometry": { "type": "LineString", "coordinates": [ [ 133.230144916, 34.418284485, 4.04 ], [ 133.230111821, 34.418431963, 3.87 ] ] } },
{ "type": "Feature", "properties": { "rID": "47961-12390-s-8152", "lfSpanFr": "2023-06-15", "lfSpanTo": null, "tmpFlg": 0, "orgGILvl": "2500", "ftCode": "2801", "admCode": null, "devDate": "2022-06-30", "type": "普通鉄道", "railState": "通常部", "drwOrder": 0, "name": null, "admOfcRT": "0", "vis": 0, "rtCode": null, "flag": 4 }, "geometry": { "type": "LineString", "coordinates": [ [ 133.230268375, 34.417923311, 4.39 ], [ 133.230252785, 34.417989346, 4.33 ], [ 133.230219334, 34.418139737, 4.19 ], [ 133.230196965, 34.418246685, 4.08 ] ] } },
{ "type": "Feature", "properties": { "rID": "47961-12390-s-8153", "lfSpanFr": "2023-06-15", "lfSpanTo": null, "tmpFlg": 0, "orgGILvl": "2500", "ftCode": "2801", "admCode": null, "devDate": "2022-06-30", "type": "普通鉄道", "railState": "通常部", "drwOrder": 0, "name": null, "admOfcRT": "0", "vis": 0, "rtCode": null, "flag": 4 }, "geometry": { "type": "LineString", "coordinates": [ [ 133.230266086, 34.417742579, 4.52 ], [ 133.230210057, 34.417982686, 4.31 ], [ 133.230176502, 34.418133349, 4.2 ], [ 133.230144916, 34.418284485, 4.04 ] ] } },
{ "type": "Feature", "properties": { "rID": "47961-12390-s-8382", "lfSpanFr": "2023-06-15", "lfSpanTo": null, "tmpFlg": 0, "orgGILvl": "2500", "ftCode": "2801", "admCode": null, "devDate": "2022-06-30", "type": "普通鉄道", "railState": "通常部", "drwOrder": 0, "name": null, "admOfcRT": "0", "vis": 0, "rtCode": null, "flag": 4 }, "geometry": { "type": "LineString", "coordinates": [ [ 133.230111821, 34.418431963, 3.87 ], [ 133.230109725, 34.418452521, 3.84 ], [ 133.23005717800001, 34.418735689, 3.61 ], [ 133.230017565999987, 34.418983676, 3.33 ], [ 133.229997591, 34.41911583, 3.19 ], [ 133.229977547, 34.419251139, 3.01 ], [ 133.229970224, 34.419299974, 3.09 ], [ 133.229943069, 34.419483666, 2.86 ], [ 133.229863023, 34.419992269, 2.74 ], [ 133.229713669, 34.42097269, 2.67 ], [ 133.229583563, 34.421823938, 2.62 ], [ 133.229474544999988, 34.422545006, 2.65 ], [ 133.229376051, 34.423177996, 2.65 ], [ 133.229303312000013, 34.423645516, 2.67 ], [ 133.229179205, 34.424481295, 2.92 ], [ 133.229171904999987, 34.424532023, 2.92 ], [ 133.229100724, 34.425, 3.31 ] ] } },
{ "type": "Feature", "properties": { "rID": "47961-12390-s-8383", "lfSpanFr": "2023-06-15", "lfSpanTo": null, "tmpFlg": 0, "orgGILvl": "2500", "ftCode": "2801", "admCode": null, "devDate": "2022-06-30", "type": "普通鉄道", "railState": "通常部", "drwOrder": 0, "name": null, "admOfcRT": "0", "vis": 0, "rtCode": null, "flag": 4 }, "geometry": { "type": "LineString", "coordinates": [ [ 133.22914243, 34.425, 3.28 ], [ 133.229213676, 34.42453166, 2.93 ], [ 133.229220304, 34.424479406, 2.89 ], [ 133.229379733, 34.423434531, 2.66 ], [ 133.229418474, 34.423177627, 2.65 ], [ 133.229527367, 34.422455118, 2.66 ], [ 133.229625768, 34.421823571, 2.67 ], [ 133.22977898, 34.420803902, 2.69 ], [ 133.229864684, 34.420260993, 2.71 ], [ 133.2299803, 34.419502996, 2.86 ], [ 133.230017466, 34.419267921, 3.16 ], [ 133.230025218, 34.419218631, 3.09 ], [ 133.230041535, 34.419115448, 3.15 ], [ 133.230060702, 34.418988259, 3.29 ], [ 133.230100321, 34.418740813, 3.57 ], [ 133.230152659999987, 34.418458368, 3.88 ], [ 133.230166, 34.418392077, 3.9 ] ] } },
{ "type": "Feature", "properties": { "rID": "47961-12393-s-10245", "lfSpanFr": "2023-06-15", "lfSpanTo": null, "tmpFlg": 0, "orgGILvl": "2500", "ftCode": "2801", "admCode": null, "devDate": "2022-06-30", "type": "普通鉄道", "railState": "通常部", "drwOrder": 0, "name": null, "admOfcRT": "0", "vis": 0, "rtCode": null, "flag": 8 }, "geometry": { "type": "LineString", "coordinates": [ [ 133.228859556, 34.426879274, 3.62 ], [ 133.228885034, 34.42669163, 3.66 ], [ 133.228920386, 34.426459006, 3.85 ], [ 133.228929333, 34.426400781, 3.76 ], [ 133.228932299, 34.4263813, 3.78 ] ] } },
{ "type": "Feature", "properties": { "rID": "47961-12393-s-10246", "lfSpanFr": "2023-06-15", "lfSpanTo": null, "tmpFlg": 0, "orgGILvl": "2500", "ftCode": "2801", "admCode": null, "devDate": "2022-06-30", "type": "普通鉄道", "railState": "通常部", "drwOrder": 0, "name": null, "admOfcRT": "0", "vis": 0, "rtCode": null, "flag": 8 }, "geometry": { "type": "LineString", "coordinates": [ [ 133.229100724, 34.425, 3.31 ], [ 133.229041970999987, 34.425386276, 3.6 ] ] } },
{ "type": "Feature", "properties": { "rID": "47961-12393-s-10247", "lfSpanFr": "2023-06-15", "lfSpanTo": null, "tmpFlg": 0, "orgGILvl": "2500", "ftCode": "2801", "admCode": null, "devDate": "2022-06-30", "type": "普通鉄道", "railState": "通常部", "drwOrder": 0, "name": null, "admOfcRT": "0", "vis": 0, "rtCode": null, "flag": 8 }, "geometry": { "type": "LineString", "coordinates": [ [ 133.228859556, 34.426879274, 3.62 ], [ 133.228832292, 34.427080456, 3.68 ], [ 133.228824681, 34.427201233, 3.6 ], [ 133.228820039, 34.42730729, 3.59 ], [ 133.228818196, 34.427402414, 3.57 ], [ 133.22881985, 34.427533208, 3.54 ], [ 133.228822934, 34.427656597, 3.56 ], [ 133.228827123, 34.427746891, 3.54 ], [ 133.228837723999987, 34.427871116, 3.55 ], [ 133.228852626, 34.427982683, 3.48 ], [ 133.228879669, 34.42819394, 3.53 ], [ 133.228902333, 34.428325633, 3.55 ], [ 133.228939212, 34.428488845, 3.46 ], [ 133.228967868000012, 34.428603988, 3.45 ], [ 133.22899944400001, 34.428717754, 3.48 ], [ 133.229019816, 34.428788706, 3.46 ], [ 133.22906239400001, 34.428912112, 3.46 ], [ 133.229095516, 34.429010448, 3.48 ], [ 133.229123651, 34.429084397, 3.45 ], [ 133.229161391, 34.42918657, 3.48 ], [ 133.229207914, 34.429294978, 3.53 ], [ 133.229290608000014, 34.429467528, 3.49 ], [ 133.229355909, 34.429606873, 3.52 ], [ 133.229438927, 34.429753367, 3.48 ], [ 133.229550384, 34.429937657, 3.46 ], [ 133.229707513, 34.430180147, 3.45 ], [ 133.229788495, 34.430294745, 3.41 ], [ 133.229956593999987, 34.430519416, 3.37 ] ] } },
{ "type": "Feature", "properties": { "rID": "47961-12393-s-10248", "lfSpanFr": "2023-06-15", "lfSpanTo": null, "tmpFlg": 0, "orgGILvl": "2500", "ftCode": "2801", "admCode": null, "devDate": "2022-06-30", "type": "普通鉄道", "railState": "通常部", "drwOrder": 0, "name": null, "admOfcRT": "0", "vis": 0, "rtCode": null, "flag": 8 }, "geometry": { "type": "LineString", "coordinates": [ [ 133.229032807000038, 34.425446522, 3.62 ], [ 133.22890522, 34.42628535, 3.79 ] ] } },
{ "type": "Feature", "properties": { "rID": "47961-12393-s-10249", "lfSpanFr": "2023-06-15", "lfSpanTo": null, "tmpFlg": 0, "orgGILvl": "2500", "ftCode": "2803", "admCode": null, "devDate": "2022-06-30", "type": "普通鉄道", "railState": "橋・高架", "drwOrder": 0, "name": null, "admOfcRT": "0", "vis": 0, "rtCode": null, "flag": 4 }, "geometry": { "type": "LineString", "coordinates": [ [ 133.2290748, 34.425444573, 3.62 ], [ 133.229083159, 34.425389623, 3.59 ] ] } },
{ "type": "Feature", "properties": { "rID": "47961-12393-s-10250", "lfSpanFr": "2023-06-15", "lfSpanTo": null, "tmpFlg": 0, "orgGILvl": "2500", "ftCode": "2801", "admCode": null, "devDate": "2022-06-30", "type": "普通鉄道", "railState": "通常部", "drwOrder": 0, "name": null, "admOfcRT": "0", "vis": 0, "rtCode": null, "flag": 8 }, "geometry": { "type": "LineString", "coordinates": [ [ 133.229083159, 34.425389623, 3.59 ], [ 133.22914243, 34.425, 3.28 ] ] } },
{ "type": "Feature", "properties": { "rID": "47961-12393-s-10251", "lfSpanFr": "2023-06-15", "lfSpanTo": null, "tmpFlg": 0, "orgGILvl": "2500", "ftCode": "2803", "admCode": null, "devDate": "2022-06-30", "type": "普通鉄道", "railState": "橋・高架", "drwOrder": 0, "name": null, "admOfcRT": "0", "vis": 0, "rtCode": null, "flag": 4 }, "geometry": { "type": "LineString", "coordinates": [ [ 133.229041970999987, 34.425386276, 3.6 ], [ 133.229032807000038, 34.425446522, 3.62 ] ] } },
{ "type": "Feature", "properties": { "rID": "47961-12393-s-10252", "lfSpanFr": "2023-06-15", "lfSpanTo": null, "tmpFlg": 0, "orgGILvl": "2500", "ftCode": "2803", "admCode": null, "devDate": "2022-06-30", "type": "普通鉄道", "railState": "橋・高架", "drwOrder": 0, "name": null, "admOfcRT": "0", "vis": 0, "rtCode": null, "flag": 4 }, "geometry": { "type": "LineString", "coordinates": [ [ 133.228932299, 34.4263813, 3.78 ], [ 133.228934556000013, 34.426366479, 3.81 ], [ 133.228950229, 34.426263451, 3.79 ] ] } },
{ "type": "Feature", "properties": { "rID": "47961-12393-s-10253", "lfSpanFr": "2023-06-15", "lfSpanTo": null, "tmpFlg": 0, "orgGILvl": "2500", "ftCode": "2803", "admCode": null, "devDate": "2022-06-30", "type": "普通鉄道", "railState": "橋・高架", "drwOrder": 0, "name": null, "admOfcRT": "0", "vis": 0, "rtCode": null, "flag": 4 }, "geometry": { "type": "LineString", "coordinates": [ [ 133.22890522, 34.42628535, 3.79 ], [ 133.228890477, 34.426382277, 3.81 ], [ 133.228888379000011, 34.426395871, 3.81 ] ] } },
{ "type": "Feature", "properties": { "rID": "47961-12393-s-10254", "lfSpanFr": "2023-06-15", "lfSpanTo": null, "tmpFlg": 0, "orgGILvl": "2500", "ftCode": "2801", "admCode": null, "devDate": "2022-06-30", "type": "普通鉄道", "railState": "通常部", "drwOrder": 0, "name": null, "admOfcRT": "0", "vis": 0, "rtCode": null, "flag": 8 }, "geometry": { "type": "LineString", "coordinates": [ [ 133.228950229, 34.426263451, 3.79 ], [ 133.2290748, 34.425444573, 3.62 ] ] } },
{ "type": "Feature", "properties": { "rID": "47961-12393-s-10255", "lfSpanFr": "2023-06-15", "lfSpanTo": null, "tmpFlg": 0, "orgGILvl": "2500", "ftCode": "2803", "admCode": null, "devDate": "2022-06-30", "type": "普通鉄道", "railState": "橋・高架", "drwOrder": 0, "name": null, "admOfcRT": "0", "vis": 0, "rtCode": null, "flag": 4 }, "geometry": { "type": "LineString", "coordinates": [ [ 133.229916433999989, 34.430529597, 3.36 ], [ 133.229931865, 34.43055033600001, 3.37 ], [ 133.230066678000014, 34.430731628, 3.27 ], [ 133.230071767999988, 34.430738345, 3.29 ], [ 133.230082872, 34.430753255, 3.28 ] ] } },
{ "type": "Feature", "properties": { "rID": "47961-12393-s-10256", "lfSpanFr": "2023-06-15", "lfSpanTo": null, "tmpFlg": 0, "orgGILvl": "2500", "ftCode": "2803", "admCode": null, "devDate": "2022-06-30", "type": "普通鉄道", "railState": "橋・高架", "drwOrder": 0, "name": null, "admOfcRT": "0", "vis": 0, "rtCode": null, "flag": 4 }, "geometry": { "type": "LineString", "coordinates": [ [ 133.229956593999987, 34.430519416, 3.37 ], [ 133.229972986, 34.430541324, 3.36 ], [ 133.230108337, 34.430722161, 3.32 ], [ 133.230112876, 34.430728341, 3.33 ], [ 133.230122827, 34.430741686, 3.3 ] ] } },
{ "type": "Feature", "properties": { "rID": "47961-12393-s-10257", "lfSpanFr": "2023-06-15", "lfSpanTo": null, "tmpFlg": 0, "orgGILvl": "2500", "ftCode": "2801", "admCode": null, "devDate": "2022-06-30", "type": "普通鉄道", "railState": "通常部", "drwOrder": 0, "name": null, "admOfcRT": "0", "vis": 0, "rtCode": null, "flag": 8 }, "geometry": { "type": "LineString", "coordinates": [ [ 133.230082872, 34.430753255, 3.28 ], [ 133.230285425, 34.431025241, 3.21 ] ] } },
{ "type": "Feature", "properties": { "rID": "47961-12393-s-10258", "lfSpanFr": "2023-06-15", "lfSpanTo": null, "tmpFlg": 0, "orgGILvl": "2500", "ftCode": "2801", "admCode": null, "devDate": "2022-06-30", "type": "普通鉄道", "railState": "通常部", "drwOrder": 0, "name": null, "admOfcRT": "0", "vis": 0, "rtCode": null, "flag": 8 }, "geometry": { "type": "LineString", "coordinates": [ [ 133.230122827, 34.430741686, 3.3 ], [ 133.230318342, 34.431003885, 3.31 ] ] } },
{ "type": "Feature", "properties": { "rID": "47961-12393-s-10259", "lfSpanFr": "2023-06-15", "lfSpanTo": null, "tmpFlg": 0, "orgGILvl": "2500", "ftCode": "2803", "admCode": null, "devDate": "2022-06-30", "type": "普通鉄道", "railState": "橋・高架", "drwOrder": 0, "name": null, "admOfcRT": "0", "vis": 0, "rtCode": null, "flag": 4 }, "geometry": { "type": "LineString", "coordinates": [ [ 133.230285425, 34.431025241, 3.21 ], [ 133.230301766, 34.431047183, 3.22 ], [ 133.23032826, 34.431082817, 3.21 ] ] } },
{ "type": "Feature", "properties": { "rID": "47961-12393-s-10260", "lfSpanFr": "2023-06-15", "lfSpanTo": null, "tmpFlg": 0, "orgGILvl": "2500", "ftCode": "2803", "admCode": null, "devDate": "2022-06-30", "type": "普通鉄道", "railState": "橋・高架", "drwOrder": 0, "name": null, "admOfcRT": "0", "vis": 0, "rtCode": null, "flag": 4 }, "geometry": { "type": "LineString", "coordinates": [ [ 133.230318342, 34.431003885, 3.31 ], [ 133.230337556, 34.431029653, 3.16 ], [ 133.230363558, 34.431064556, 3.32 ] ] } },
{ "type": "Feature", "properties": { "rID": "47961-12393-s-10261", "lfSpanFr": "2023-06-15", "lfSpanTo": null, "tmpFlg": 0, "orgGILvl": "2500", "ftCode": "2801", "admCode": null, "devDate": "2022-06-30", "type": "普通鉄道", "railState": "通常部", "drwOrder": 0, "name": null, "admOfcRT": "0", "vis": 0, "rtCode": null, "flag": 8 }, "geometry": { "type": "LineString", "coordinates": [ [ 133.230363558, 34.431064556, 3.32 ], [ 133.230435842, 34.431161589, 3.3 ], [ 133.230664732, 34.431468722, 3.29 ], [ 133.230869621000011, 34.431744782, 3.3 ], [ 133.231180168, 34.432159023, 3.22 ], [ 133.23149015300001, 34.43258021, 3.18 ], [ 133.231804161000014, 34.43300091, 3.16 ], [ 133.23205339, 34.433333333, 3.17 ] ] } },
{ "type": "Feature", "properties": { "rID": "47961-12393-s-10262", "lfSpanFr": "2023-06-15", "lfSpanTo": null, "tmpFlg": 0, "orgGILvl": "2500", "ftCode": "2801", "admCode": null, "devDate": "2022-06-30", "type": "普通鉄道", "railState": "通常部", "drwOrder": 0, "name": null, "admOfcRT": "0", "vis": 0, "rtCode": null, "flag": 8 }, "geometry": { "type": "LineString", "coordinates": [ [ 133.23032826, 34.431082817, 3.21 ], [ 133.230436692000012, 34.431228653, 3.17 ], [ 133.230628180999986, 34.431486349, 3.24 ], [ 133.230833935, 34.431762041, 3.33 ], [ 133.231142428, 34.432177292, 3.33 ], [ 133.231457400000011, 34.432597083, 3.26 ], [ 133.231771406, 34.433017693, 3.19 ], [ 133.232007954000011, 34.433333333, 3.19 ] ] } },
{ "type": "Feature", "properties": { "rID": "47961-12393-s-10495", "lfSpanFr": "2023-06-15", "lfSpanTo": null, "tmpFlg": 0, "orgGILvl": "2500", "ftCode": "2801", "admCode": null, "devDate": "2022-06-30", "type": "普通鉄道", "railState": "通常部", "drwOrder": 0, "name": null, "admOfcRT": "0", "vis": 0, "rtCode": null, "flag": 8 }, "geometry": { "type": "LineString", "coordinates": [ [ 133.228888379000011, 34.426395871, 3.81 ], [ 133.228885851, 34.426412247, 3.82 ], [ 133.228877321, 34.426468936, 3.85 ], [ 133.228843966999989, 34.426687569, 3.65 ], [ 133.228817893000013, 34.426879636, 3.6 ], [ 133.228791023000014, 34.427077659, 3.65 ], [ 133.228783429, 34.427199788, 3.66 ], [ 133.228778685, 34.427306387, 3.64 ], [ 133.22877685200001, 34.427402323, 3.64 ], [ 133.228778514999988, 34.427533747, 3.64 ], [ 133.228781606000013, 34.427657677, 3.58 ], [ 133.228785804000012, 34.427748782, 3.62 ], [ 133.228796530000011, 34.427874268, 3.59 ], [ 133.22881154800001, 34.427986375, 3.59 ], [ 133.228838597, 34.428198173, 3.57 ], [ 133.228861495, 34.428331126, 3.59 ], [ 133.228898606, 34.428495418, 3.6 ], [ 133.228927488000011, 34.428611281, 3.61 ], [ 133.228959178, 34.428725496, 3.59 ], [ 133.22897989, 34.428797436, 3.66 ], [ 133.229022582999988, 34.428921383, 3.63 ], [ 133.229055821, 34.429020259, 3.62 ], [ 133.229084179000012, 34.429094657, 3.62 ], [ 133.229122142, 34.429197279, 3.6 ], [ 133.22916922600001, 34.429307033, 3.63 ], [ 133.229252034000012, 34.429480033, 3.58 ], [ 133.229317892000012, 34.429620365, 3.58 ], [ 133.229401691, 34.429768475, 3.56 ], [ 133.229504694000013, 34.429938054, 3.54 ], [ 133.22967279400001, 34.430196406, 3.43 ], [ 133.22975433, 34.43031172, 3.42 ], [ 133.229916433999989, 34.430529597, 3.36 ] ] } },
{ "type": "Feature", "properties": { "rID": "47961-12396-s-9683", "lfSpanFr": "2023-06-15", "lfSpanTo": null, "tmpFlg": 0, "orgGILvl": "2500", "ftCode": "2801", "admCode": null, "devDate": "2022-06-30", "type": "普通鉄道", "railState": "通常部", "drwOrder": 0, "name": null, "admOfcRT": "0", "vis": 0, "rtCode": null, "flag": 4 }, "geometry": { "type": "LineString", "coordinates": [ [ 133.233333333, 34.435111726, 3.12 ], [ 133.233308421, 34.435078739, 3.14 ], [ 133.233181595, 34.434907475, 3.17 ] ] } },
{ "type": "Feature", "properties": { "rID": "47961-12396-s-9684", "lfSpanFr": "2023-06-15", "lfSpanTo": null, "tmpFlg": 0, "orgGILvl": "2500", "ftCode": "2801", "admCode": null, "devDate": "2022-06-30", "type": "普通鉄道", "railState": "通常部", "drwOrder": 0, "name": null, "admOfcRT": "0", "vis": 0, "rtCode": null, "flag": 8 }, "geometry": { "type": "LineString", "coordinates": [ [ 133.232053390000146, 34.433333333000121, 3.17 ], [ 133.232225393000135, 34.433562752, 3.2 ], [ 133.232540947000075, 34.433984699, 3.2 ], [ 133.232747744999983, 34.434264435000102, 3.29 ], [ 133.232828949000123, 34.434372942000095, 3.38 ] ] } },
{ "type": "Feature", "properties": { "rID": "47961-12396-s-9685", "lfSpanFr": "2023-06-15", "lfSpanTo": null, "tmpFlg": 0, "orgGILvl": "2500", "ftCode": "2801", "admCode": null, "devDate": "2022-06-30", "type": "普通鉄道", "railState": "通常部", "drwOrder": 0, "name": null, "admOfcRT": "0", "vis": 0, "rtCode": null, "flag": 8 }, "geometry": { "type": "LineString", "coordinates": [ [ 133.232007954000011, 34.433333333, 3.19 ], [ 133.23219253100001, 34.433579626, 3.23 ], [ 133.232508083999988, 34.434001483, 3.23 ], [ 133.232714881, 34.434281219, 3.29 ], [ 133.232807525, 34.43440504, 3.48 ] ] } },
{ "type": "Feature", "properties": { "rID": "47961-12396-s-9686", "lfSpanFr": "2023-06-15", "lfSpanTo": null, "tmpFlg": 0, "orgGILvl": "2500", "ftCode": "2803", "admCode": null, "devDate": "2022-06-30", "type": "普通鉄道", "railState": "橋・高架", "drwOrder": 0, "name": null, "admOfcRT": "0", "vis": 0, "rtCode": null, "flag": 4 }, "geometry": { "type": "LineString", "coordinates": [ [ 133.232807525000112, 34.434405040000058, 3.480000000000132 ], [ 133.232880616999978, 34.43450273000002, 3.49 ] ] } },
{ "type": "Feature", "properties": { "rID": "47961-12396-s-9687", "lfSpanFr": "2023-06-15", "lfSpanTo": null, "tmpFlg": 0, "orgGILvl": "2500", "ftCode": "2803", "admCode": null, "devDate": "2022-06-30", "type": "普通鉄道", "railState": "橋・高架", "drwOrder": 0, "name": null, "admOfcRT": "0", "vis": 0, "rtCode": null, "flag": 4 }, "geometry": { "type": "LineString", "coordinates": [ [ 133.232828949000123, 34.434372942000095, 3.38 ], [ 133.232901259000073, 34.434469565000029, 3.48 ] ] } },
{ "type": "Feature", "properties": { "rID": "47961-12396-s-9688", "lfSpanFr": "2023-06-15", "lfSpanTo": null, "tmpFlg": 0, "orgGILvl": "2500", "ftCode": "2802", "admCode": null, "devDate": "2022-06-30", "type": "普通鉄道", "railState": "その他", "drwOrder": 0, "name": null, "admOfcRT": "0", "vis": 1, "rtCode": null, "flag": 8 }, "geometry": { "type": "LineString", "coordinates": [ [ 133.233096652, 34.434794033, 3.28 ], [ 133.233181595, 34.434907475, 3.17 ] ] } },
{ "type": "Feature", "properties": { "rID": "47961-12396-s-9689", "lfSpanFr": "2023-06-15", "lfSpanTo": null, "tmpFlg": 0, "orgGILvl": "2500", "ftCode": "2802", "admCode": null, "devDate": "2022-06-30", "type": "普通鉄道", "railState": "その他", "drwOrder": 0, "name": null, "admOfcRT": "0", "vis": 1, "rtCode": null, "flag": 8 }, "geometry": { "type": "LineString", "coordinates": [ [ 133.233215412, 34.434889674, 3.2 ], [ 133.233129620999989, 34.434777069, 3.32 ] ] } },
{ "type": "Feature", "properties": { "rID": "47961-12396-s-9690", "lfSpanFr": "2023-06-15", "lfSpanTo": null, "tmpFlg": 0, "orgGILvl": "2500", "ftCode": "2801", "admCode": null, "devDate": "2022-06-30", "type": "普通鉄道", "railState": "通常部", "drwOrder": 0, "name": null, "admOfcRT": "0", "vis": 0, "rtCode": null, "flag": 4 }, "geometry": { "type": "LineString", "coordinates": [ [ 133.233215412, 34.434889674, 3.2 ], [ 133.233333333, 34.435049022, 3.11 ] ] } },
{ "type": "Feature", "properties": { "rID": "47961-12396-s-9924", "lfSpanFr": "2023-06-15", "lfSpanTo": null, "tmpFlg": 0, "orgGILvl": "2500", "ftCode": "2801", "admCode": null, "devDate": "2022-06-30", "type": "普通鉄道", "railState": "通常部", "drwOrder": 0, "name": null, "admOfcRT": "0", "vis": 0, "rtCode": null, "flag": 8 }, "geometry": { "type": "LineString", "coordinates": [ [ 133.232901259000073, 34.434469565000029, 3.48 ], [ 133.232927382000184, 34.434504471000025, 3.47 ], [ 133.232977412000082, 34.434571466000023, 3.49 ], [ 133.232992242000023, 34.434591170000033, 3.47 ], [ 133.233061309000163, 34.434683512999925, 3.27 ], [ 133.233129620999989, 34.434777069000063, 3.320000000000164 ] ] } },
{ "type": "Feature", "properties": { "rID": "47961-12396-s-9925", "lfSpanFr": "2023-06-15", "lfSpanTo": null, "tmpFlg": 0, "orgGILvl": "2500", "ftCode": "2801", "admCode": null, "devDate": "2022-06-30", "type": "普通鉄道", "railState": "通常部", "drwOrder": 0, "name": null, "admOfcRT": "0", "vis": 0, "rtCode": null, "flag": 8 }, "geometry": { "type": "LineString", "coordinates": [ [ 133.232880616999978, 34.43450273000002, 3.49 ], [ 133.232909018999976, 34.434540691000052, 3.51 ], [ 133.232958717999963, 34.434607239, 3.51 ], [ 133.232993028000124, 34.434653006000019, 3.29 ], [ 133.233028335999961, 34.434700207999981, 3.27 ], [ 133.233096651999972, 34.434794033, 3.28 ] ] } },
{ "type": "Feature", "properties": { "rID": "47961-12399-s-5821", "lfSpanFr": "2023-06-15", "lfSpanTo": null, "tmpFlg": 0, "orgGILvl": "25000", "ftCode": "2804", "admCode": null, "devDate": null, "type": "普通鉄道", "railState": "トンネル", "drwOrder": 0, "name": null, "admOfcRT": null, "vis": 1, "rtCode": null, "flag": 8 }, "geometry": { "type": "LineString", "coordinates": [ [ 133.226931513000011, 34.45, 27.51 ], [ 133.226348492, 34.44963435, 27.86 ], [ 133.225572718, 34.449146881, 28.33 ], [ 133.225, 34.448787019, 28.67 ] ] } },
{ "type": "Feature", "properties": { "rID": "47961-12399-s-5822", "lfSpanFr": "2023-06-15", "lfSpanTo": null, "tmpFlg": 0, "orgGILvl": "25000", "ftCode": "2804", "admCode": null, "devDate": null, "type": "普通鉄道", "railState": "トンネル", "drwOrder": 0, "name": null, "admOfcRT": null, "vis": 1, "rtCode": null, "flag": 8 }, "geometry": { "type": "LineString", "coordinates": [ [ 133.226852709000013, 34.45, 27.25 ], [ 133.226311157, 34.449660358, 27.46 ], [ 133.225533412, 34.449171702, 27.76 ], [ 133.225, 34.448836534, 27.96 ] ] } },
{ "type": "Feature", "properties": { "rID": "47961-12402-s-4483", "lfSpanFr": "2023-06-15", "lfSpanTo": null, "tmpFlg": 0, "orgGILvl": "25000", "ftCode": "2804", "admCode": null, "devDate": null, "type": "普通鉄道", "railState": "トンネル", "drwOrder": 0, "name": null, "admOfcRT": null, "vis": 1, "rtCode": null, "flag": 8 }, "geometry": { "type": "LineString", "coordinates": [ [ 133.233333333, 34.453697985, 23.65 ], [ 133.232910449, 34.453475442, 23.73 ], [ 133.231472706, 34.452692505, 24.0 ], [ 133.230102755, 34.451912508, 24.26 ] ] } },
{ "type": "Feature", "properties": { "rID": "47961-12402-s-4484", "lfSpanFr": "2023-06-15", "lfSpanTo": null, "tmpFlg": 0, "orgGILvl": "25000", "ftCode": "2804", "admCode": null, "devDate": null, "type": "普通鉄道", "railState": "トンネル", "drwOrder": 0, "name": null, "admOfcRT": null, "vis": 1, "rtCode": null, "flag": 8 }, "geometry": { "type": "LineString", "coordinates": [ [ 133.233333333, 34.453751161, 23.67 ], [ 133.23288729, 34.453515592, 23.75 ], [ 133.231434942, 34.452721879, 24.03 ], [ 133.230074972000011, 34.451944302, 24.29 ] ] } },
{ "type": "Feature", "properties": { "rID": "47961-12402-s-4485", "lfSpanFr": "2023-06-15", "lfSpanTo": null, "tmpFlg": 0, "orgGILvl": "25000", "ftCode": "2802", "admCode": null, "devDate": null, "type": "普通鉄道", "railState": "その他", "drwOrder": 0, "name": null, "admOfcRT": null, "vis": 1, "rtCode": null, "flag": 8 }, "geometry": { "type": "LineString", "coordinates": [ [ 133.228466773, 34.450993226, 26.63 ], [ 133.228265031, 34.450874828, 26.71 ] ] } },
{ "type": "Feature", "properties": { "rID": "47961-12402-s-4486", "lfSpanFr": "2023-06-15", "lfSpanTo": null, "tmpFlg": 0, "orgGILvl": "25000", "ftCode": "2802", "admCode": null, "devDate": null, "type": "普通鉄道", "railState": "その他", "drwOrder": 0, "name": null, "admOfcRT": null, "vis": 1, "rtCode": null, "flag": 8 }, "geometry": { "type": "LineString", "coordinates": [ [ 133.22849702, 34.450958346, 26.58 ], [ 133.228292291, 34.45084253, 26.7 ] ] } },
{ "type": "Feature", "properties": { "rID": "47961-12402-s-4571", "lfSpanFr": "2023-06-15", "lfSpanTo": null, "tmpFlg": 0, "orgGILvl": "25000", "ftCode": "2804", "admCode": null, "devDate": null, "type": "普通鉄道", "railState": "トンネル", "drwOrder": 0, "name": null, "admOfcRT": null, "vis": 1, "rtCode": null, "flag": 8 }, "geometry": { "type": "LineString", "coordinates": [ [ 133.228265031, 34.450874828, 26.71 ], [ 133.227501123, 34.450404754, 27.0 ], [ 133.227009574, 34.45009838, 27.19 ], [ 133.226852709000013, 34.45, 27.25 ] ] } },
{ "type": "Feature", "properties": { "rID": "47961-12402-s-4572", "lfSpanFr": "2023-06-15", "lfSpanTo": null, "tmpFlg": 0, "orgGILvl": "25000", "ftCode": "2804", "admCode": null, "devDate": null, "type": "普通鉄道", "railState": "トンネル", "drwOrder": 0, "name": null, "admOfcRT": null, "vis": 1, "rtCode": null, "flag": 8 }, "geometry": { "type": "LineString", "coordinates": [ [ 133.228292291, 34.45084253, 26.7 ], [ 133.227538315, 34.450378586, 27.15 ], [ 133.227046910000013, 34.450072373, 27.44 ], [ 133.226931513000011, 34.45, 27.51 ] ] } },
{ "type": "Feature", "properties": { "rID": "47961-12402-s-5252", "lfSpanFr": "2023-06-15", "lfSpanTo": null, "tmpFlg": 0, "orgGILvl": "2500", "ftCode": "2803", "admCode": null, "devDate": "2022-06-30", "type": "普通鉄道", "railState": "橋・高架", "drwOrder": 0, "name": null, "admOfcRT": "0", "vis": 0, "rtCode": null, "flag": 8 }, "geometry": { "type": "LineString", "coordinates": [ [ 133.230074972000125, 34.451944302000015, 24.29 ], [ 133.22978880200003, 34.45177604700001, 25.46 ], [ 133.229755691000037, 34.451756683000042, 25.46 ], [ 133.229456183000138, 34.451574840000148, 25.46 ], [ 133.229406185000016, 34.451545435000128, 25.46 ], [ 133.22937373100001, 34.451526334999983, 25.46 ], [ 133.229349829000057, 34.451512299000058, 25.46 ], [ 133.22927121500004, 34.451466105000122, 25.46 ], [ 133.229098419000024, 34.451364565000063, 25.46 ], [ 133.228676956000072, 34.451116799000033, 25.46 ], [ 133.22862992, 34.451089171000035, 25.46 ], [ 133.228626410000174, 34.451087037999969, 25.46 ], [ 133.22846677300015, 34.45099322599998, 26.630000000000109 ] ] } },
{ "type": "Feature", "properties": { "rID": "47961-12402-s-5253", "lfSpanFr": "2023-06-15", "lfSpanTo": null, "tmpFlg": 0, "orgGILvl": "2500", "ftCode": "2803", "admCode": null, "devDate": "2022-06-30", "type": "普通鉄道", "railState": "橋・高架", "drwOrder": 0, "name": null, "admOfcRT": "0", "vis": 0, "rtCode": null, "flag": 8 }, "geometry": { "type": "LineString", "coordinates": [ [ 133.228497020000077, 34.450958345999936, 26.58 ], [ 133.228655019000144, 34.451051630999928, 25.42 ], [ 133.228658528000096, 34.451053764000051, 25.42 ], [ 133.228703812000163, 34.451080505999926, 25.42 ], [ 133.229095795000148, 34.451312030999986, 25.42 ], [ 133.229264102000116, 34.451411445999952, 25.42 ], [ 133.229357850000042, 34.451466794000112, 25.42 ], [ 133.229381751, 34.451480830000037, 25.42 ], [ 133.229419580000013, 34.451503219000017, 25.42 ], [ 133.229465084000026, 34.451530139000113, 25.42 ], [ 133.229780830999971, 34.451722387000018, 25.42 ], [ 133.229814273999978, 34.451742199999956, 25.42 ], [ 133.230102754999962, 34.451912508000021, 24.260000000000105 ] ] } },
{ "type": "Feature", "properties": { "rID": "47964-12396-s-7824", "lfSpanFr": "2023-06-15", "lfSpanTo": null, "tmpFlg": 0, "orgGILvl": "2500", "ftCode": "2801", "admCode": null, "devDate": "2022-06-30", "type": "普通鉄道", "railState": "通常部", "drwOrder": 0, "name": null, "admOfcRT": "0", "vis": 0, "rtCode": null, "flag": 4 }, "geometry": { "type": "LineString", "coordinates": [ [ 133.239099219, 34.440928402, 5.07 ], [ 133.240745723, 34.441666667, 6.49 ] ] } },
{ "type": "Feature", "properties": { "rID": "47964-12396-s-7825", "lfSpanFr": "2023-06-15", "lfSpanTo": null, "tmpFlg": 0, "orgGILvl": "2500", "ftCode": "2801", "admCode": null, "devDate": "2022-06-30", "type": "普通鉄道", "railState": "通常部", "drwOrder": 0, "name": null, "admOfcRT": "0", "vis": 0, "rtCode": null, "flag": 4 }, "geometry": { "type": "LineString", "coordinates": [ [ 133.240658866, 34.441666667, 6.49 ], [ 133.239079253, 34.440958236, 5.13 ] ] } },
{ "type": "Feature", "properties": { "rID": "47964-12396-s-9748", "lfSpanFr": "2023-06-15", "lfSpanTo": null, "tmpFlg": 0, "orgGILvl": "2500", "ftCode": "2801", "admCode": null, "devDate": "2022-06-30", "type": "普通鉄道", "railState": "通常部", "drwOrder": 0, "name": null, "admOfcRT": "0", "vis": 0, "rtCode": null, "flag": 8 }, "geometry": { "type": "LineString", "coordinates": [ [ 133.236815207, 34.439517103, 2.95 ], [ 133.2367395, 34.439450785, 2.92 ], [ 133.236661003, 34.439378991, 2.95 ], [ 133.236567901, 34.439288213, 2.88 ], [ 133.236462773999989, 34.439184559, 2.88 ], [ 133.236415949, 34.43913593900001, 2.91 ] ] } },
{ "type": "Feature", "properties": { "rID": "47964-12396-s-9749", "lfSpanFr": "2023-06-15", "lfSpanTo": null, "tmpFlg": 0, "orgGILvl": "2500", "ftCode": "2801", "admCode": null, "devDate": "2022-06-30", "type": "普通鉄道", "railState": "通常部", "drwOrder": 0, "name": null, "admOfcRT": "0", "vis": 0, "rtCode": null, "flag": 4 }, "geometry": { "type": "LineString", "coordinates": [ [ 133.239079253, 34.440958236, 5.13 ], [ 133.238818603999988, 34.440835664, 4.82 ], [ 133.238778427, 34.440816635, 4.72 ] ] } },
{ "type": "Feature", "properties": { "rID": "47964-12396-s-9750", "lfSpanFr": "2023-06-15", "lfSpanTo": null, "tmpFlg": 0, "orgGILvl": "2500", "ftCode": "2803", "admCode": null, "devDate": "2022-06-30", "type": "普通鉄道", "railState": "橋・高架", "drwOrder": 0, "name": null, "admOfcRT": "0", "vis": 0, "rtCode": null, "flag": 4 }, "geometry": { "type": "LineString", "coordinates": [ [ 133.236135539, 34.438772771, 2.98 ], [ 133.236167975, 34.438809854, 2.89 ] ] } },
{ "type": "Feature", "properties": { "rID": "47964-12396-s-9751", "lfSpanFr": "2023-06-15", "lfSpanTo": null, "tmpFlg": 0, "orgGILvl": "2500", "ftCode": "2801", "admCode": null, "devDate": "2022-06-30", "type": "普通鉄道", "railState": "通常部", "drwOrder": 0, "name": null, "admOfcRT": "0", "vis": 0, "rtCode": null, "flag": 8 }, "geometry": { "type": "LineString", "coordinates": [ [ 133.236167975, 34.438809854, 2.89 ], [ 133.236217047, 34.438865955, 2.98 ], [ 133.236291378, 34.438947344, 2.96 ] ] } },
{ "type": "Feature", "properties": { "rID": "47964-12396-s-9752", "lfSpanFr": "2023-06-15", "lfSpanTo": null, "tmpFlg": 0, "orgGILvl": "2500", "ftCode": "2803", "admCode": null, "devDate": "2022-06-30", "type": "普通鉄道", "railState": "橋・高架", "drwOrder": 0, "name": null, "admOfcRT": "0", "vis": 0, "rtCode": null, "flag": 4 }, "geometry": { "type": "LineString", "coordinates": [ [ 133.236139218, 34.438835544, 2.95 ], [ 133.236105587, 34.438796589, 2.94 ] ] } },
{ "type": "Feature", "properties": { "rID": "47964-12396-s-9753", "lfSpanFr": "2023-06-15", "lfSpanTo": null, "tmpFlg": 0, "orgGILvl": "2500", "ftCode": "2801", "admCode": null, "devDate": "2022-06-30", "type": "普通鉄道", "railState": "通常部", "drwOrder": 0, "name": null, "admOfcRT": "0", "vis": 0, "rtCode": null, "flag": 8 }, "geometry": { "type": "LineString", "coordinates": [ [ 133.23626431, 34.438975824, 2.94 ], [ 133.2361827, 34.438885909, 2.92 ], [ 133.236139218, 34.438835544, 2.95 ] ] } },
{ "type": "Feature", "properties": { "rID": "47964-12396-s-9754", "lfSpanFr": "2023-06-15", "lfSpanTo": null, "tmpFlg": 0, "orgGILvl": "2500", "ftCode": "2803", "admCode": null, "devDate": "2022-06-30", "type": "普通鉄道", "railState": "橋・高架", "drwOrder": 0, "name": null, "admOfcRT": "0", "vis": 0, "rtCode": null, "flag": 4 }, "geometry": { "type": "LineString", "coordinates": [ [ 133.236291378, 34.438947344, 2.96 ], [ 133.23633777, 34.438998141, 2.95 ], [ 133.236342073, 34.439002791, 2.97 ], [ 133.236391909, 34.439054101, 2.9 ], [ 133.236442769, 34.439106471, 2.92 ] ] } },
{ "type": "Feature", "properties": { "rID": "47964-12396-s-9755", "lfSpanFr": "2023-06-15", "lfSpanTo": null, "tmpFlg": 0, "orgGILvl": "2500", "ftCode": "2803", "admCode": null, "devDate": "2022-06-30", "type": "普通鉄道", "railState": "橋・高架", "drwOrder": 0, "name": null, "admOfcRT": "0", "vis": 0, "rtCode": null, "flag": 4 }, "geometry": { "type": "LineString", "coordinates": [ [ 133.236415949, 34.43913593900001, 2.91 ], [ 133.23636695, 34.439085061, 2.97 ], [ 133.23631314, 34.439029278, 2.94 ], [ 133.236307958, 34.439023914, 2.92 ], [ 133.23626431, 34.438975824, 2.94 ] ] } },
{ "type": "Feature", "properties": { "rID": "47964-12396-s-9902", "lfSpanFr": "2023-06-15", "lfSpanTo": null, "tmpFlg": 0, "orgGILvl": "2500", "ftCode": "2801", "admCode": null, "devDate": "2022-06-30", "type": "普通鉄道", "railState": "通常部", "drwOrder": 0, "name": null, "admOfcRT": "0", "vis": 0, "rtCode": null, "flag": 8 }, "geometry": { "type": "LineString", "coordinates": [ [ 133.236105587, 34.438796589, 2.94 ], [ 133.236084519, 34.438772187, 2.93 ], [ 133.235999451, 34.438671332, 2.91 ], [ 133.235959771000012, 34.438622907, 2.91 ], [ 133.235886576000013, 34.438531595, 2.92 ], [ 133.235824157, 34.438449112, 2.89 ], [ 133.235589946, 34.438137348, 2.99 ], [ 133.235583416999987, 34.438128751, 2.85 ], [ 133.235443955, 34.437943179, 2.82 ], [ 133.235315588, 34.437774368, 2.83 ], [ 133.235175504000011, 34.437591146, 2.87 ], [ 133.234864267, 34.437177102, 2.9 ], [ 133.234592185999986, 34.436813018, 2.91 ], [ 133.23447736, 34.436656349, 2.87 ], [ 133.234395643, 34.436544916, 2.89 ], [ 133.234084984, 34.436124464, 2.93 ], [ 133.23380511900001, 34.435746654, 2.95 ], [ 133.233485156, 34.435312759, 3.0 ], [ 133.233333333, 34.435111726, 3.12 ] ] } },
{ "type": "Feature", "properties": { "rID": "47964-12396-s-9903", "lfSpanFr": "2023-06-15", "lfSpanTo": null, "tmpFlg": 0, "orgGILvl": "2500", "ftCode": "2801", "admCode": null, "devDate": "2022-06-30", "type": "普通鉄道", "railState": "通常部", "drwOrder": 0, "name": null, "admOfcRT": "0", "vis": 0, "rtCode": null, "flag": 8 }, "geometry": { "type": "LineString", "coordinates": [ [ 133.233333333, 34.435049022, 3.11 ], [ 133.233342363, 34.435061224, 3.1 ], [ 133.233530414, 34.435312364, 2.98 ], [ 133.233833221999987, 34.43572342, 2.96 ], [ 133.234119914, 34.436107571, 2.92 ], [ 133.234437848999988, 34.436535532, 2.88 ], [ 133.23452697, 34.436655916, 2.86 ], [ 133.234863411, 34.437109857, 2.92 ], [ 133.235211391, 34.437572441, 2.95 ], [ 133.235349499, 34.437754329, 2.92 ], [ 133.235478322, 34.437924758, 2.89 ], [ 133.235618337, 34.438111046, 2.9 ], [ 133.235624756, 34.438119554, 3.04 ], [ 133.235858192, 34.438430244, 2.95 ], [ 133.235919516, 34.438512195, 2.97 ], [ 133.235989827, 34.438599206, 2.96 ], [ 133.236031943, 34.438650944, 2.96 ], [ 133.23611656700001, 34.438751082, 2.97 ], [ 133.236135539, 34.438772771, 2.98 ] ] } },
{ "type": "Feature", "properties": { "rID": "47964-12396-s-9904", "lfSpanFr": "2023-06-15", "lfSpanTo": null, "tmpFlg": 0, "orgGILvl": "2500", "ftCode": "2801", "admCode": null, "devDate": "2022-06-30", "type": "普通鉄道", "railState": "通常部", "drwOrder": 0, "name": null, "admOfcRT": "0", "vis": 0, "rtCode": null, "flag": 8 }, "geometry": { "type": "LineString", "coordinates": [ [ 133.236442769, 34.439106471, 2.92 ], [ 133.236496432, 34.439161727, 2.9 ], [ 133.236604362, 34.439263374, 2.88 ], [ 133.236696564, 34.439351815, 2.9 ], [ 133.236775583, 34.439421891, 2.93 ], [ 133.236852598000013, 34.439488379, 2.98 ], [ 133.236934268, 34.439561497, 3.02 ], [ 133.237084523, 34.439688555, 3.14 ], [ 133.237303815, 34.439870631, 3.37 ], [ 133.23745545, 34.439986318, 3.53 ], [ 133.237689868, 34.440151403, 3.76 ], [ 133.237958204, 34.44032241, 3.93 ], [ 133.238121662, 34.440426543, 4.08 ], [ 133.238458215, 34.440622374, 4.49 ], [ 133.238622192, 34.440707391, 4.61 ], [ 133.238989089, 34.44087636, 4.95 ], [ 133.239099219, 34.440928402, 5.07 ] ] } },
{ "type": "Feature", "properties": { "rID": "47964-12396-s-9905", "lfSpanFr": "2023-06-15", "lfSpanTo": null, "tmpFlg": 0, "orgGILvl": "2500", "ftCode": "2801", "admCode": null, "devDate": "2022-06-30", "type": "普通鉄道", "railState": "通常部", "drwOrder": 0, "name": null, "admOfcRT": "0", "vis": 0, "rtCode": null, "flag": 4 }, "geometry": { "type": "LineString", "coordinates": [ [ 133.236815207, 34.439517103, 2.95 ], [ 133.236897426000013, 34.439590667, 2.98 ], [ 133.237048233, 34.439718262, 3.14 ], [ 133.237268784, 34.439896721, 3.34 ], [ 133.237421687, 34.440017986, 3.53 ], [ 133.237657133, 34.440178284, 3.69 ], [ 133.237884220000012, 34.440323058, 3.88 ], [ 133.238094085, 34.440456895, 4.14 ], [ 133.238435509999988, 34.44065079, 4.45 ], [ 133.238601241, 34.440736783, 4.65 ], [ 133.238778427, 34.440816635, 4.72 ] ] } },
{ "type": "Feature", "properties": { "rID": "47964-12399-s-9371", "lfSpanFr": "2023-06-15", "lfSpanTo": null, "tmpFlg": 0, "orgGILvl": "2500", "ftCode": "2801", "admCode": null, "devDate": "2014-03-13", "type": "普通鉄道", "railState": "通常部", "drwOrder": 0, "name": null, "admOfcRT": "0", "vis": 0, "rtCode": null, "flag": 8 }, "geometry": { "type": "LineString", "coordinates": [ [ 133.240745723, 34.441666667, 6.49 ], [ 133.240796658, 34.44168926, 6.52 ], [ 133.241033378, 34.441799048, 6.63 ] ] } },
{ "type": "Feature", "properties": { "rID": "47964-12399-s-9372", "lfSpanFr": "2023-06-15", "lfSpanTo": null, "tmpFlg": 0, "orgGILvl": "2500", "ftCode": "2801", "admCode": null, "devDate": "2014-03-13", "type": "普通鉄道", "railState": "通常部", "drwOrder": 0, "name": null, "admOfcRT": "0", "vis": 0, "rtCode": null, "flag": 8 }, "geometry": { "type": "LineString", "coordinates": [ [ 133.241021824, 34.441832765, 6.65 ], [ 133.24077680100001, 34.44171913, 6.54 ], [ 133.240658866, 34.441666667, 6.49 ] ] } },
{ "type": "Feature", "properties": { "rID": "47964-12399-s-9373", "lfSpanFr": "2023-06-15", "lfSpanTo": null, "tmpFlg": 0, "orgGILvl": "2500", "ftCode": "2803", "admCode": null, "devDate": "2014-03-13", "type": "普通鉄道", "railState": "橋・高架", "drwOrder": 0, "name": null, "admOfcRT": "0", "vis": 0, "rtCode": null, "flag": 4 }, "geometry": { "type": "LineString", "coordinates": [ [ 133.241033378, 34.441799048, 6.63 ], [ 133.241041691, 34.441802904, 6.61 ], [ 133.241090613000011, 34.441824895, 6.69 ], [ 133.241134248000037, 34.441844516, 6.65 ], [ 133.241450343, 34.441986608, 6.65 ], [ 133.241666667, 34.442083852, 6.68 ] ] } },
{ "type": "Feature", "properties": { "rID": "47964-12399-s-9374", "lfSpanFr": "2023-06-15", "lfSpanTo": null, "tmpFlg": 0, "orgGILvl": "2500", "ftCode": "2803", "admCode": null, "devDate": "2014-03-13", "type": "普通鉄道", "railState": "橋・高架", "drwOrder": 0, "name": null, "admOfcRT": "0", "vis": 0, "rtCode": null, "flag": 4 }, "geometry": { "type": "LineString", "coordinates": [ [ 133.241666667, 34.442122646, 6.7 ], [ 133.241433506, 34.442017831, 6.69 ], [ 133.241127469, 34.441880256, 6.62 ], [ 133.241083834, 34.441860645, 6.66 ], [ 133.241021824, 34.441832765, 6.65 ] ] } },
{ "type": "Feature", "properties": { "rID": "47964-12402-s-5124", "lfSpanFr": "2023-06-15", "lfSpanTo": null, "tmpFlg": 0, "orgGILvl": "25000", "ftCode": "2804", "admCode": null, "devDate": null, "type": "普通鉄道", "railState": "トンネル", "drwOrder": 0, "name": null, "admOfcRT": null, "vis": 1, "rtCode": null, "flag": 8 }, "geometry": { "type": "LineString", "coordinates": [ [ 133.241666667, 34.457657944, 27.33 ], [ 133.241143889, 34.457451528, 27.41 ], [ 133.238950687999989, 34.456444356, 27.74 ], [ 133.238322117, 34.456145002, 27.84 ], [ 133.238078868, 34.456035714, 27.87 ], [ 133.236191028, 34.455187544, 28.16 ] ] } },
{ "type": "Feature", "properties": { "rID": "47964-12402-s-5125", "lfSpanFr": "2023-06-15", "lfSpanTo": null, "tmpFlg": 0, "orgGILvl": "25000", "ftCode": "2804", "admCode": null, "devDate": null, "type": "普通鉄道", "railState": "トンネル", "drwOrder": 0, "name": null, "admOfcRT": null, "vis": 1, "rtCode": null, "flag": 8 }, "geometry": { "type": "LineString", "coordinates": [ [ 133.241666667, 34.457608056, 26.85 ], [ 133.24116869400001, 34.457411417, 26.88 ], [ 133.238980864000013, 34.456404523, 27.03 ], [ 133.238374521, 34.456115126, 27.07 ], [ 133.238165614, 34.45602115, 27.08 ], [ 133.236219005, 34.45514547, 27.21 ] ] } },
{ "type": "Feature", "properties": { "rID": "47964-12402-s-5281", "lfSpanFr": "2023-06-15", "lfSpanTo": null, "tmpFlg": 0, "orgGILvl": "25000", "ftCode": "2804", "admCode": null, "devDate": null, "type": "普通鉄道", "railState": "トンネル", "drwOrder": 0, "name": null, "admOfcRT": null, "vis": 1, "rtCode": null, "flag": 8 }, "geometry": { "type": "LineString", "coordinates": [ [ 133.235375806999969, 34.454797023000026, 24.38 ], [ 133.233728843, 34.45396003999997, 23.600000000000136 ], [ 133.233333333000132, 34.453751161000014, 23.67 ] ] } },
{ "type": "Feature", "properties": { "rID": "47964-12402-s-5282", "lfSpanFr": "2023-06-15", "lfSpanTo": null, "tmpFlg": 0, "orgGILvl": "25000", "ftCode": "2804", "admCode": null, "devDate": null, "type": "普通鉄道", "railState": "トンネル", "drwOrder": 0, "name": null, "admOfcRT": null, "vis": 1, "rtCode": null, "flag": 8 }, "geometry": { "type": "LineString", "coordinates": [ [ 133.235406302000115, 34.454756099000065, 24.41 ], [ 133.233763907000025, 34.453924574999974, 23.57 ], [ 133.233333333000132, 34.453697985000076, 23.65 ] ] } },
{ "type": "Feature", "properties": { "rID": "47964-12402-s-5869", "lfSpanFr": "2023-06-15", "lfSpanTo": null, "tmpFlg": 0, "orgGILvl": "2500", "ftCode": "2803", "admCode": null, "devDate": "2022-06-30", "type": "普通鉄道", "railState": "橋・高架", "drwOrder": 0, "name": null, "admOfcRT": "0", "vis": 0, "rtCode": null, "flag": 8 }, "geometry": { "type": "LineString", "coordinates": [ [ 133.235375806999969, 34.454797023000026, 24.38 ], [ 133.235466910000014, 34.454840671000113, 25.16 ], [ 133.235507643000233, 34.45486014699992, 25.730000000000132 ], [ 133.236191028, 34.455187544000125, 28.16 ] ] } },
{ "type": "Feature", "properties": { "rID": "47964-12402-s-5870", "lfSpanFr": "2023-06-15", "lfSpanTo": null, "tmpFlg": 0, "orgGILvl": "2500", "ftCode": "2803", "admCode": null, "devDate": "2022-06-30", "type": "普通鉄道", "railState": "橋・高架", "drwOrder": 0, "name": null, "admOfcRT": "0", "vis": 0, "rtCode": null, "flag": 8 }, "geometry": { "type": "LineString", "coordinates": [ [ 133.235406302000115, 34.454756099000065, 24.41 ], [ 133.235498937999978, 34.454800454000065, 25.240000000000123 ], [ 133.2355354, 34.454817895000019, 25.240000000000123 ], [ 133.236219005000294, 34.45514547, 27.21000000000015 ] ] } },
{ "type": "Feature", "properties": { "rID": "47967-12399-s-5856", "lfSpanFr": "2020-11-04", "lfSpanTo": null, "tmpFlg": 0, "orgGILvl": "2500", "ftCode": "2803", "admCode": null, "devDate": "2014-03-13", "type": "普通鉄道", "railState": "橋・高架", "drwOrder": 0, "name": null, "admOfcRT": "0", "vis": 0, "rtCode": null, "flag": 4 }, "geometry": { "type": "LineString", "coordinates": [ [ 133.241666667, 34.442083852, 6.68 ], [ 133.241706222, 34.442101634, 6.68 ], [ 133.241957430000014, 34.442214556, 6.66 ], [ 133.241979592, 34.442224521, 6.68 ], [ 133.242022209999988, 34.442243672, 6.67 ], [ 133.242030943, 34.442247598, 6.67 ], [ 133.242057604, 34.442259588, 6.67 ], [ 133.242089803, 34.442274059, 6.65 ] ] } },
{ "type": "Feature", "properties": { "rID": "47967-12399-s-5857", "lfSpanFr": "2020-11-04", "lfSpanTo": null, "tmpFlg": 0, "orgGILvl": "2500", "ftCode": "2803", "admCode": null, "devDate": "2014-03-13", "type": "普通鉄道", "railState": "橋・高架", "drwOrder": 0, "name": null, "admOfcRT": "0", "vis": 0, "rtCode": null, "flag": 4 }, "geometry": { "type": "LineString", "coordinates": [ [ 133.242078625, 34.442307832000012, 6.65 ], [ 133.242055828, 34.442297584, 6.7 ], [ 133.242029167, 34.442285603, 6.7 ], [ 133.242020346, 34.442281633, 6.65 ], [ 133.241977728, 34.442262472, 6.68 ], [ 133.241956649, 34.442253003, 6.72 ], [ 133.241696697, 34.442136146, 6.68 ], [ 133.241666667, 34.442122646, 6.7 ] ] } },
{ "type": "Feature", "properties": { "rID": "47967-12399-s-5858", "lfSpanFr": "2020-11-04", "lfSpanTo": null, "tmpFlg": 0, "orgGILvl": "2500", "ftCode": "2801", "admCode": null, "devDate": "2014-03-13", "type": "普通鉄道", "railState": "通常部", "drwOrder": 0, "name": null, "admOfcRT": "0", "vis": 0, "rtCode": null, "flag": 8 }, "geometry": { "type": "LineString", "coordinates": [ [ 133.242089803, 34.442274059, 6.65 ], [ 133.242098131, 34.442277802, 6.45 ], [ 133.242689985, 34.44253943, 6.52 ], [ 133.243365856999986, 34.442844235, 6.18 ], [ 133.243599082, 34.442947061, 6.07 ], [ 133.243816759999987, 34.443046562, 5.95 ], [ 133.244433447, 34.443325574, 5.79 ] ] } },
{ "type": "Feature", "properties": { "rID": "47967-12399-s-5859", "lfSpanFr": "2020-11-04", "lfSpanTo": null, "tmpFlg": 0, "orgGILvl": "2500", "ftCode": "2801", "admCode": null, "devDate": "2014-03-13", "type": "普通鉄道", "railState": "通常部", "drwOrder": 0, "name": null, "admOfcRT": "0", "vis": 0, "rtCode": null, "flag": 8 }, "geometry": { "type": "LineString", "coordinates": [ [ 133.244414670999987, 34.443358335, 5.84 ], [ 133.243579456, 34.442977047, 6.1 ], [ 133.243346351000014, 34.442874265, 6.21 ], [ 133.242670457, 34.44256945, 6.55 ], [ 133.242078625, 34.442307832000012, 6.65 ] ] } },
{ "type": "Feature", "properties": { "rID": "47967-12399-s-5860", "lfSpanFr": "2020-11-04", "lfSpanTo": null, "tmpFlg": 0, "orgGILvl": "2500", "ftCode": "2803", "admCode": null, "devDate": "2014-03-13", "type": "普通鉄道", "railState": "橋・高架", "drwOrder": 0, "name": null, "admOfcRT": "0", "vis": 0, "rtCode": null, "flag": 4 }, "geometry": { "type": "LineString", "coordinates": [ [ 133.244433447, 34.443325574, 5.79 ], [ 133.24444051, 34.44332877, 5.78 ], [ 133.244466824, 34.443340807, 5.81 ], [ 133.244493541999987, 34.44335303, 5.82 ], [ 133.244605158000013, 34.443404108, 5.81 ], [ 133.244614504999987, 34.443408389, 5.82 ], [ 133.244645559, 34.443422602, 5.81 ], [ 133.244690628000029, 34.443443224, 5.81 ] ] } },
{ "type": "Feature", "properties": { "rID": "47967-12399-s-5861", "lfSpanFr": "2020-11-04", "lfSpanTo": null, "tmpFlg": 0, "orgGILvl": "2500", "ftCode": "2803", "admCode": null, "devDate": "2014-03-13", "type": "普通鉄道", "railState": "橋・高架", "drwOrder": 0, "name": null, "admOfcRT": "0", "vis": 0, "rtCode": null, "flag": 4 }, "geometry": { "type": "LineString", "coordinates": [ [ 133.244673674000012, 34.443475495, 5.84 ], [ 133.24464084600001, 34.443460650999988, 5.84 ], [ 133.244609773, 34.4434466, 5.88 ], [ 133.244604016000011, 34.443444, 5.8 ], [ 133.244491894, 34.443393288, 5.81 ], [ 133.244465166, 34.443381209, 5.83 ], [ 133.244422163, 34.443361755, 5.84 ], [ 133.244414670999987, 34.443358335, 5.84 ] ] } },
{ "type": "Feature", "properties": { "rID": "47967-12399-s-5862", "lfSpanFr": "2020-11-04", "lfSpanTo": null, "tmpFlg": 0, "orgGILvl": "2500", "ftCode": "2801", "admCode": null, "devDate": "2014-03-13", "type": "普通鉄道", "railState": "通常部", "drwOrder": 0, "name": null, "admOfcRT": "0", "vis": 0, "rtCode": null, "flag": 8 }, "geometry": { "type": "LineString", "coordinates": [ [ 133.244690628000029, 34.443443224, 5.81 ], [ 133.244972972999989, 34.443572419, 5.68 ], [ 133.245237094, 34.443690501, 5.7 ] ] } },
{ "type": "Feature", "properties": { "rID": "47967-12399-s-5863", "lfSpanFr": "2020-11-04", "lfSpanTo": null, "tmpFlg": 0, "orgGILvl": "2500", "ftCode": "2801", "admCode": null, "devDate": "2014-03-13", "type": "普通鉄道", "railState": "通常部", "drwOrder": 0, "name": null, "admOfcRT": "0", "vis": 0, "rtCode": null, "flag": 8 }, "geometry": { "type": "LineString", "coordinates": [ [ 133.245219682, 34.443724971, 5.79 ], [ 133.24514193600001, 34.443688782, 5.72 ], [ 133.244765041, 34.44351681, 5.76 ], [ 133.244673674000012, 34.443475495, 5.84 ] ] } },
{ "type": "Feature", "properties": { "rID": "47967-12399-s-5864", "lfSpanFr": "2020-11-04", "lfSpanTo": null, "tmpFlg": 0, "orgGILvl": "2500", "ftCode": "2803", "admCode": null, "devDate": "2014-03-13", "type": "普通鉄道", "railState": "橋・高架", "drwOrder": 0, "name": null, "admOfcRT": "0", "vis": 0, "rtCode": null, "flag": 4 }, "geometry": { "type": "LineString", "coordinates": [ [ 133.245237094, 34.443690501, 5.7 ], [ 133.245447711, 34.44378466300001, 5.7 ], [ 133.245568101, 34.443838475, 5.72 ], [ 133.245900376, 34.44398703, 5.7 ], [ 133.245913335000012, 34.44399282, 4.67 ], [ 133.246014173, 34.444038357, 4.87 ], [ 133.246020335, 34.444041143, 5.74 ], [ 133.246095761000021, 34.444075204, 5.71 ] ] } },
{ "type": "Feature", "properties": { "rID": "47967-12399-s-5865", "lfSpanFr": "2020-11-04", "lfSpanTo": null, "tmpFlg": 0, "orgGILvl": "2500", "ftCode": "2803", "admCode": null, "devDate": "2014-03-13", "type": "普通鉄道", "railState": "橋・高架", "drwOrder": 0, "name": null, "admOfcRT": "0", "vis": 0, "rtCode": null, "flag": 4 }, "geometry": { "type": "LineString", "coordinates": [ [ 133.246082030999986, 34.444112499, 5.76 ], [ 133.246008884, 34.44407981, 4.71 ], [ 133.245956635, 34.444056454, 5.69 ], [ 133.245954872999988, 34.444055676, 5.64 ], [ 133.245943054, 34.44405046100001, 5.75 ], [ 133.245527652, 34.443867103, 5.71 ], [ 133.245477365, 34.44384491, 5.61 ], [ 133.245438996, 34.443827056000011, 5.68 ], [ 133.245219682, 34.443724971, 5.79 ] ] } },
{ "type": "Feature", "properties": { "rID": "47967-12399-s-5866", "lfSpanFr": "2020-11-04", "lfSpanTo": null, "tmpFlg": 0, "orgGILvl": "2500", "ftCode": "2801", "admCode": null, "devDate": "2014-03-13", "type": "普通鉄道", "railState": "通常部", "drwOrder": 0, "name": null, "admOfcRT": "0", "vis": 0, "rtCode": null, "flag": 8 }, "geometry": { "type": "LineString", "coordinates": [ [ 133.246095761000021, 34.444075204, 5.71 ], [ 133.24635149400001, 34.444190689, 5.64 ], [ 133.246772349999986, 34.444378234, 5.49 ], [ 133.247231679, 34.444578734, 5.35 ], [ 133.247341311000014, 34.444628841, 5.37 ] ] } },
{ "type": "Feature", "properties": { "rID": "47967-12399-s-5867", "lfSpanFr": "2020-11-04", "lfSpanTo": null, "tmpFlg": 0, "orgGILvl": "2500", "ftCode": "2801", "admCode": null, "devDate": "2014-03-13", "type": "普通鉄道", "railState": "通常部", "drwOrder": 0, "name": null, "admOfcRT": "0", "vis": 0, "rtCode": null, "flag": 8 }, "geometry": { "type": "LineString", "coordinates": [ [ 133.247323773, 34.44466185000001, 5.44 ], [ 133.247210439000014, 34.44461005, 5.44 ], [ 133.246751081000014, 34.444411497, 5.55 ], [ 133.246082030999986, 34.444112499, 5.76 ] ] } },
{ "type": "Feature", "properties": { "rID": "47967-12399-s-5868", "lfSpanFr": "2020-11-04", "lfSpanTo": null, "tmpFlg": 0, "orgGILvl": "2500", "ftCode": "2803", "admCode": null, "devDate": "2014-03-13", "type": "普通鉄道", "railState": "橋・高架", "drwOrder": 0, "name": null, "admOfcRT": "0", "vis": 0, "rtCode": null, "flag": 4 }, "geometry": { "type": "LineString", "coordinates": [ [ 133.247341311000014, 34.444628841, 5.37 ], [ 133.247376223, 34.444644798, 5.36 ], [ 133.247394175000011, 34.444653005, 5.37 ], [ 133.247400841, 34.444656056, 5.36 ], [ 133.247402746, 34.444656923, 5.36 ], [ 133.247406477999988, 34.44465863, 5.35 ], [ 133.247534105999989, 34.444714909, 5.3 ], [ 133.247536032, 34.444715757, 5.3 ], [ 133.247541799, 34.444718294, 5.31 ], [ 133.247555248999987, 34.444724224, 5.3 ], [ 133.247582926, 34.444736429, 5.28 ], [ 133.247592702, 34.444740893, 5.3 ] ] } },
{ "type": "Feature", "properties": { "rID": "47967-12399-s-5869", "lfSpanFr": "2020-11-04", "lfSpanTo": null, "tmpFlg": 0, "orgGILvl": "2500", "ftCode": "2803", "admCode": null, "devDate": "2014-03-13", "type": "普通鉄道", "railState": "橋・高架", "drwOrder": 0, "name": null, "admOfcRT": "0", "vis": 0, "rtCode": null, "flag": 4 }, "geometry": { "type": "LineString", "coordinates": [ [ 133.247573302, 34.444773046, 5.36 ], [ 133.247562276999986, 34.444768011, 5.36 ], [ 133.24753565, 34.444756274, 5.38 ], [ 133.2475222, 34.444750344, 5.38 ], [ 133.247516432999987, 34.444747799, 5.34 ], [ 133.247514507, 34.44474695, 5.35 ], [ 133.247385807, 34.444690212, 5.41 ], [ 133.247382292999987, 34.444688593, 5.41 ], [ 133.247380378, 34.444687727000016, 5.43 ], [ 133.247373700999987, 34.444684675, 5.4 ], [ 133.247357478, 34.444677255, 5.41 ], [ 133.247323773, 34.44466185000001, 5.44 ] ] } },
{ "type": "Feature", "properties": { "rID": "47967-12399-s-5870", "lfSpanFr": "2020-11-04", "lfSpanTo": null, "tmpFlg": 0, "orgGILvl": "2500", "ftCode": "2801", "admCode": null, "devDate": "2014-03-13", "type": "普通鉄道", "railState": "通常部", "drwOrder": 0, "name": null, "admOfcRT": "0", "vis": 0, "rtCode": null, "flag": 8 }, "geometry": { "type": "LineString", "coordinates": [ [ 133.247592702, 34.444740893, 5.3 ], [ 133.247807354, 34.444838919, 5.14 ], [ 133.248742083, 34.445259086, 4.9 ], [ 133.25, 34.445823784, 4.72 ] ] } },
{ "type": "Feature", "properties": { "rID": "47967-12399-s-5871", "lfSpanFr": "2020-11-04", "lfSpanTo": null, "tmpFlg": 0, "orgGILvl": "2500", "ftCode": "2801", "admCode": null, "devDate": "2014-03-13", "type": "普通鉄道", "railState": "通常部", "drwOrder": 0, "name": null, "admOfcRT": "0", "vis": 0, "rtCode": null, "flag": 8 }, "geometry": { "type": "LineString", "coordinates": [ [ 133.25, 34.445864633, 4.86 ], [ 133.248721401000012, 34.445290642, 5.02 ], [ 133.247786628999989, 34.444870465, 5.22 ], [ 133.247573302, 34.444773046, 5.36 ] ] } },
{ "type": "Feature", "properties": { "rID": "47967-12402-s-3899", "lfSpanFr": "2020-11-04", "lfSpanTo": null, "tmpFlg": 0, "orgGILvl": "25000", "ftCode": "2804", "admCode": null, "devDate": null, "type": "普通鉄道", "railState": "トンネル", "drwOrder": 0, "name": null, "admOfcRT": null, "vis": 1, "rtCode": null, "flag": 8 }, "geometry": { "type": "LineString", "coordinates": [ [ 133.243591333000012, 34.458333333, 26.72 ], [ 133.242510806000013, 34.457941389, 26.79 ], [ 133.241666667, 34.457608056, 26.85 ] ] } },
{ "type": "Feature", "properties": { "rID": "47967-12402-s-3900", "lfSpanFr": "2020-11-04", "lfSpanTo": null, "tmpFlg": 0, "orgGILvl": "25000", "ftCode": "2804", "admCode": null, "devDate": null, "type": "普通鉄道", "railState": "トンネル", "drwOrder": 0, "name": null, "admOfcRT": null, "vis": 1, "rtCode": null, "flag": 8 }, "geometry": { "type": "LineString", "coordinates": [ [ 133.243455805999986, 34.458333333, 27.07 ], [ 133.242488028, 34.45798225, 27.21 ], [ 133.241666667, 34.457657944, 27.33 ] ] } },
{ "type": "Feature", "properties": { "rID": "47967-12405-s-2977", "lfSpanFr": "2020-11-04", "lfSpanTo": null, "tmpFlg": 0, "orgGILvl": "25000", "ftCode": "2802", "admCode": null, "devDate": null, "type": "普通鉄道", "railState": "その他", "drwOrder": 0, "name": null, "admOfcRT": null, "vis": 1, "rtCode": null, "flag": 8 }, "geometry": { "type": "LineString", "coordinates": [ [ 133.249000309, 34.460189358, 26.38 ], [ 133.248859608, 34.460139644, 26.39 ] ] } },
{ "type": "Feature", "properties": { "rID": "47967-12405-s-2978", "lfSpanFr": "2020-11-04", "lfSpanTo": null, "tmpFlg": 0, "orgGILvl": "25000", "ftCode": "2802", "admCode": null, "devDate": null, "type": "普通鉄道", "railState": "その他", "drwOrder": 0, "name": null, "admOfcRT": null, "vis": 1, "rtCode": null, "flag": 8 }, "geometry": { "type": "LineString", "coordinates": [ [ 133.248983541, 34.46022507, 26.27 ], [ 133.248843034, 34.460176063, 26.29 ] ] } },
{ "type": "Feature", "properties": { "rID": "47967-12405-s-2979", "lfSpanFr": "2020-11-04", "lfSpanTo": null, "tmpFlg": 0, "orgGILvl": "2500", "ftCode": "2802", "admCode": null, "devDate": "2014-03-13", "type": "普通鉄道", "railState": "その他", "drwOrder": 0, "name": null, "admOfcRT": "0", "vis": 1, "rtCode": null, "flag": 8 }, "geometry": { "type": "LineString", "coordinates": [ [ 133.249000309, 34.460189358, 26.38 ], [ 133.249001321, 34.460189692, 26.38 ] ] } },
{ "type": "Feature", "properties": { "rID": "47967-12405-s-2980", "lfSpanFr": "2020-11-04", "lfSpanTo": null, "tmpFlg": 0, "orgGILvl": "2500", "ftCode": "2803", "admCode": null, "devDate": "2014-03-13", "type": "普通鉄道", "railState": "橋・高架", "drwOrder": 0, "name": null, "admOfcRT": "0", "vis": 0, "rtCode": null, "flag": 4 }, "geometry": { "type": "LineString", "coordinates": [ [ 133.25, 34.460561034, 17.41 ], [ 133.249664766, 34.460450234, 17.26 ], [ 133.249635122, 34.460440436, 17.28 ], [ 133.248984551, 34.460225404, 26.27 ] ] } },
{ "type": "Feature", "properties": { "rID": "47967-12405-s-3212", "lfSpanFr": "2020-11-04", "lfSpanTo": null, "tmpFlg": 0, "orgGILvl": "25000", "ftCode": "2804", "admCode": null, "devDate": null, "type": "普通鉄道", "railState": "トンネル", "drwOrder": 0, "name": null, "admOfcRT": null, "vis": 1, "rtCode": null, "flag": 8 }, "geometry": { "type": "LineString", "coordinates": [ [ 133.248859608, 34.460139644, 26.39 ], [ 133.247413361000014, 34.459628639, 26.48 ], [ 133.246691528000014, 34.459422056, 26.53 ], [ 133.245066528, 34.458851556, 26.63 ], [ 133.244356305999986, 34.458616639, 26.67 ], [ 133.243633, 34.458348444, 26.72 ], [ 133.243591333000012, 34.458333333, 26.72 ] ] } },
{ "type": "Feature", "properties": { "rID": "47967-12405-s-3213", "lfSpanFr": "2020-11-04", "lfSpanTo": null, "tmpFlg": 0, "orgGILvl": "25000", "ftCode": "2804", "admCode": null, "devDate": null, "type": "普通鉄道", "railState": "トンネル", "drwOrder": 0, "name": null, "admOfcRT": null, "vis": 1, "rtCode": null, "flag": 8 }, "geometry": { "type": "LineString", "coordinates": [ [ 133.248843034, 34.460176063, 26.29 ], [ 133.247394582999988, 34.459670861, 26.5 ], [ 133.246671806, 34.459464056, 26.6 ], [ 133.245043472, 34.458892333, 26.84 ], [ 133.244335917, 34.458658361, 26.94 ], [ 133.243609944000013, 34.45838925, 27.05 ], [ 133.243455805999986, 34.458333333, 27.07 ] ] } },
{ "type": "Feature", "properties": { "rID": "47967-12405-s-3214", "lfSpanFr": "2020-11-04", "lfSpanTo": null, "tmpFlg": 0, "orgGILvl": "2500", "ftCode": "2803", "admCode": null, "devDate": "2014-03-13", "type": "普通鉄道", "railState": "橋・高架", "drwOrder": 0, "name": null, "admOfcRT": "0", "vis": 0, "rtCode": null, "flag": 4 }, "geometry": { "type": "LineString", "coordinates": [ [ 133.249001321, 34.460189692, 26.38 ], [ 133.249653819, 34.460404923, 17.25 ], [ 133.249683866999987, 34.460414834, 17.24 ], [ 133.25, 34.460519115, 17.39 ] ] } },
{ "type": "Feature", "properties": { "rID": "47967-12405-s-3215", "lfSpanFr": "2020-11-04", "lfSpanTo": null, "tmpFlg": 0, "orgGILvl": "2500", "ftCode": "2802", "admCode": null, "devDate": "2014-03-13", "type": "普通鉄道", "railState": "その他", "drwOrder": 0, "name": null, "admOfcRT": "0", "vis": 1, "rtCode": null, "flag": 8 }, "geometry": { "type": "LineString", "coordinates": [ [ 133.248984551, 34.460225404, 26.27 ], [ 133.248983541, 34.46022507, 26.27 ] ] } }
]
}
